{"type": "FeatureCollection", "name": "RanhRPH", "features": [{"type": "Feature", "geometry": {"coordinates": [[[106.88580956511522, 10.645801871739438], [106.89355480580893, 10.636740216715799], [106.89961264758492, 10.628688555800812], [106.90534385788376, 10.62364889292647], [106.91073975091106, 10.61961415935205], [106.91782494970519, 10.615238693469388], [106.92694327775801, 10.61185889492655], [106.9353823718565, 10.607812473703307], [106.94280570806566, 10.60343477978252], [106.9522576812002, 10.59904955145281], [106.96813520282005, 10.594973831902735], [106.9765910470542, 10.595275562365062], [106.9857549313373, 10.60360349580123], [106.99186436294679, 10.609267028916038], [106.99999860469049, 10.613584252543255], [107.01115273598016, 10.612201407909579], [107.02328965618251, 10.603119379996942], [107.02592148493409, 10.585377416354541], [107.02586617457271, 10.571995287314786], [107.01466842114327, 10.562338105769765], [107.01429876642105, 10.554644718375611], [107.02441828729093, 10.548916442902419], [107.02808928069248, 10.53719209657091], [107.01418137304, 10.525872995152113], [107.01078553345252, 10.522206355476476], [107.00466094051639, 10.512528243068378], [106.99651133139693, 10.503527210898426], [106.99305316515134, 10.484136011343852], [106.98930531500748, 10.47679022075836], [106.97843980628383, 10.464453350216903], [106.9729910530777, 10.454102726096323], [106.96182339870221, 10.45079966477812], [106.95941611584226, 10.440102597264168], [106.97321732662813, 10.42566363275202], [106.97891759037634, 10.413931954761646], [106.96096551017685, 10.403628711983238], [106.9463972530213, 10.394315411431553], [106.90711824577592, 10.373381250657754], [106.88142206289443, 10.369792395809185], [106.87265030323688, 10.373838102439555], [106.87169055870177, 10.388897620885045], [106.867690843373, 10.404636803548538], [106.85653696424859, 10.404340947758067], [106.84738258498443, 10.396007820632502], [106.83081207413004, 10.393052924735423], [106.82170884460825, 10.399440604235314], [106.81431329797394, 10.411175710418235], [106.79982928110798, 10.425945327651334], [106.78129684331866, 10.443404321402946], [106.76545577341022, 10.457507860684283], [106.75299457416627, 10.471934684530291], [106.74528877711175, 10.493707250188404], [106.74063134219446, 10.517477771737118], [106.73971209604686, 10.547259140891903], [106.73672649337729, 10.565336415818265], [106.7367671036741, 10.578050465883384], [106.74931520254661, 10.589052360040403], [106.75607323931258, 10.587357867177943], [106.76386566641723, 10.591682770983741], [106.7703166737744, 10.599357404816892], [106.77713719025017, 10.616399081259459], [106.78595416952308, 10.623396499241029], [106.80116920658728, 10.622007471822204], [106.8116456119602, 10.619630320654645], [106.82618843005241, 10.619580845579376], [106.8323091174363, 10.628927981902901], [106.83540510137895, 10.643638740447209], [106.84964053212181, 10.65195352574856], [106.86012866713628, 10.65258567135965], [106.87433317365449, 10.652200537881328], [106.88580956511522, 10.645801871739438]]], "type": "Polygon"}, "properties": {"fid": 1, "TT": 0.0}}]}