{"type": "FeatureCollection", "name": "Contor", "features": [{"type": "Feature", "geometry": {"coordinates": [[[104.60926476556011, 9.79908111946053], [104.60911998538863, 9.799258288808677], [104.60896722816793, 9.799228643526163], [104.60870044662545, 9.799036126988517], [104.60865614281427, 9.798803332694133], [104.60872459514233, 9.798739864489873], [104.6090241879492, 9.79871014226764], [104.60918854197794, 9.798852192321513], [104.60926476556011, 9.79908111946053]]], "type": "MultiLineString"}, "properties": {"NAME": "50 m", "LAYER": "Contour Line, Intermediate", "ELEVATION": "50 m", "CLOSED_CON": "YES"}}, {"type": "Feature", "geometry": {"coordinates": [[[104.6571640350584, 9.816262520480382], [104.65705763701965, 9.8165074896021], [104.65657727859333, 9.816830700498562], [104.65488810900476, 9.817146052504276], [104.65440421061, 9.817135092968108], [104.65338607272923, 9.816798888639008], [104.65266958486295, 9.816707630745642], [104.65128827085918, 9.8166578874766], [104.65089734537132, 9.816503012709582], [104.65040173219661, 9.816123992527432], [104.64935026816315, 9.81583105408304], [104.64854984358081, 9.815436790712248], [104.6479690741406, 9.8150619732703], [104.647317229036, 9.81499911004333], [104.64624941310598, 9.814592323089078], [104.64478664377513, 9.81431943675258], [104.64309682312964, 9.813452974274059], [104.64237283241404, 9.813002794336501], [104.64203962443207, 9.813197212211463], [104.64171172225524, 9.813662743597646], [104.64175895621267, 9.814311802563878], [104.64134342188741, 9.815041971839623], [104.64106583756244, 9.815861219070703], [104.64110152374047, 9.816192459639705], [104.64153990311944, 9.816980002078493], [104.64192224558613, 9.818168726783473], [104.64180306424184, 9.818809266554986], [104.641469522467, 9.819315470346963], [104.64122422303127, 9.81949197640241], [104.64067949277465, 9.81962920476616], [104.63878800710896, 9.819549945663896], [104.63812611309258, 9.81991739537962], [104.63748136376498, 9.82019242902674], [104.63672566439033, 9.820769421950772], [104.63646095735712, 9.820904818332124], [104.63451285891541, 9.82135805682504], [104.63416736042866, 9.82135668135397], [104.63369510100992, 9.821241086915395], [104.63258011428506, 9.820711665259442], [104.63198616805713, 9.820342337453745], [104.63145745297037, 9.819857535405063], [104.63082088782807, 9.819151173902137], [104.62879636584395, 9.81748660507877], [104.62811899241177, 9.817148376188822], [104.62746367202303, 9.81702664813628], [104.62711553747874, 9.81684814511919], [104.62636495478829, 9.815945012128028], [104.62584757418635, 9.815075797566545], [104.62486522853919, 9.814022503503674], [104.62445244449336, 9.813684187093985], [104.62328804844861, 9.8131170111909], [104.621885028619, 9.812042392682875], [104.62154925331792, 9.811908595282178], [104.61978932334502, 9.811576176431585], [104.6192669912074, 9.811284121420483], [104.61902004765702, 9.811074782718519], [104.61851389399189, 9.81049319080856], [104.61807161314945, 9.80969983462107], [104.61792762009895, 9.809224436791931], [104.6178809376686, 9.80833984174538], [104.61780767054434, 9.808078136628218], [104.61716963182948, 9.807184367233031], [104.6164909972278, 9.806011022955287], [104.61623540981623, 9.80527326627059], [104.61495262338187, 9.803947303063643], [104.61472630363404, 9.803651955659364], [104.61456283606643, 9.803325788194034], [104.61458314362794, 9.80297996457934], [104.61477453581067, 9.80246828768525], [104.6150611993101, 9.801238557398644], [104.61579912700368, 9.799705886303592], [104.61646717878065, 9.798707758093716], [104.6166273378115, 9.798106244500797], [104.6168410969923, 9.79798176293618], [104.61729990414483, 9.797870335508229], [104.6177289012219, 9.79765490665276], [104.61803853545275, 9.797578173503869], [104.61933891835075, 9.797777238646363], [104.62054797150132, 9.798169057698422], [104.6222334596132, 9.79920078881026], [104.62260561490984, 9.799272076247624], [104.62321914513042, 9.799165545498948], [104.62351624512056, 9.79917185095716], [104.62433544646107, 9.799428092022662], [104.62462654704406, 9.799567893162513], [104.62504931808687, 9.799893882313782], [104.62620324551193, 9.800311919682677], [104.62728350069084, 9.800921800852992], [104.62811982815103, 9.80123909061795], [104.6283678928281, 9.801618696402015], [104.62852730963708, 9.802086848965333], [104.62868508207336, 9.802361673456286], [104.62894670540202, 9.802655772601026], [104.6293876952443, 9.8029993827229], [104.62993665769766, 9.803278816228685], [104.63088972205715, 9.80335433324606], [104.63126462221533, 9.803462189149206], [104.63203971700345, 9.803925889146083], [104.63286480929503, 9.804198023809642], [104.6332044595586, 9.804432581658943], [104.63334512407037, 9.80477863067775], [104.63336390212625, 9.805070264186444], [104.63341658613953, 9.80483258496851], [104.63368813211963, 9.804695682968777], [104.63383226059435, 9.804366833631603], [104.6341535999848, 9.80397638731741], [104.63427464565987, 9.803739871725192], [104.63442253015184, 9.803202986387513], [104.63482802474765, 9.802588214111704], [104.63493176871822, 9.802300630978177], [104.63496147913742, 9.801967021753564], [104.63491299452207, 9.801674298307276], [104.63498537222462, 9.801469861101712], [104.63509882225325, 9.801383836974354], [104.63551504375339, 9.801318182100701], [104.63583835083932, 9.80116841162503], [104.63625770459896, 9.80072941883147], [104.63638368242444, 9.80043081021807], [104.63644946501768, 9.799450041938204], [104.63705291412779, 9.798181794037909], [104.6369978923525, 9.797844756823253], [104.6367532964598, 9.79745154334804], [104.63662799303958, 9.797128922384424], [104.63667939431828, 9.796274863071023], [104.63638862470498, 9.795667426440971], [104.63627595215958, 9.795213622484319], [104.6363565986416, 9.794754679020755], [104.63672065203329, 9.79437344450066], [104.63690840071908, 9.794307816166091], [104.6372323344966, 9.794289954487581], [104.63786504889133, 9.794444880495426], [104.6382781845234, 9.794765229689954], [104.63884170035963, 9.795462418495545], [104.63929185836543, 9.795781881170775], [104.63961889064538, 9.795923345597762], [104.64113226529196, 9.796146633398413], [104.6421188558601, 9.79605981718499], [104.6424528696106, 9.796079086194567], [104.64310699226175, 9.796258877620788], [104.64400933110366, 9.796639171253432], [104.64478626973695, 9.796581032303624], [104.64554967633126, 9.796625250274387], [104.64669968727988, 9.796854485587096], [104.64793459516967, 9.796855797690979], [104.64889239945575, 9.797034425098644], [104.64933561738233, 9.797358448380242], [104.64976596954773, 9.798000229704042], [104.65075990960212, 9.798881222462501], [104.65176716756086, 9.800086956451965], [104.6521104626303, 9.800891281596748], [104.65262695150273, 9.801625762029845], [104.65296798764112, 9.802463673932532], [104.65357914062238, 9.80353418744897], [104.65399187944132, 9.804071903211284], [104.65404799055533, 9.804553683669216], [104.65392295193382, 9.805203687279354], [104.6543771474901, 9.80694050392724], [104.65436283858537, 9.807640704630659], [104.6544293811204, 9.807976188475516], [104.65480742341008, 9.808759668079409], [104.6555108536008, 9.80951920547933], [104.65591943663023, 9.810084680846325], [104.65620230103762, 9.810944187416176], [104.65642452764105, 9.81143738973079], [104.65657422463713, 9.812007913308488], [104.65664564211394, 9.812677458170945], [104.65696333912173, 9.813406360495884], [104.65700724108041, 9.814609789057862], [104.65737060886457, 9.81544706844936], [104.65735548089165, 9.81576615376882], [104.6571640350584, 9.816262520480382]]], "type": "MultiLineString"}, "properties": {"NAME": "50 m", "LAYER": "Contour Line, Intermediate", "ELEVATION": "50 m", "CLOSED_CON": "YES"}}, {"type": "Feature", "geometry": {"coordinates": [[[104.6562068598384, 9.81507820428178], [104.65616904973461, 9.815433951939053], [104.65600292707757, 9.815800213711414], [104.65572835719028, 9.816066350469951], [104.65540362680323, 9.816205136748337], [104.65495756335307, 9.816229546651398], [104.65458506497492, 9.81609897772791], [104.65428613179434, 9.816064591206635], [104.6531349441325, 9.81615869173516], [104.65216845505054, 9.815994278012607], [104.65145248007785, 9.815968305709507], [104.65004405720025, 9.81525662889487], [104.64935923139723, 9.814739824197323], [104.64813042571754, 9.814078728010509], [104.64723652677507, 9.813782724272617], [104.64655272063726, 9.813728984430284], [104.64637827730108, 9.813659903599032], [104.64568499161813, 9.813203267106172], [104.64477989083483, 9.812925544300079], [104.64380520082017, 9.812485753436238], [104.64269343603108, 9.811808276676867], [104.64218628175752, 9.811721050068247], [104.64155776071394, 9.811839712963199], [104.64110219266011, 9.81202349395084], [104.64087501688242, 9.812332711306139], [104.64079511306423, 9.812795216845192], [104.64057922727582, 9.813385559417393], [104.64044178860871, 9.814523964484604], [104.64023769839764, 9.815636503698952], [104.64010141907771, 9.816085349227775], [104.6401059963482, 9.816440852875271], [104.64024438865506, 9.816743388468147], [104.64069288988867, 9.817052890878536], [104.64099588769169, 9.81750692024338], [104.64107758626207, 9.818113509823826], [104.64102311472361, 9.818347010253087], [104.64089378766613, 9.818544252482441], [104.64062260737208, 9.81876053803933], [104.64035570139279, 9.818797056717814], [104.6399746651588, 9.818718592036243], [104.639127811507, 9.818405828332892], [104.63896467893593, 9.818374331133416], [104.63873802647169, 9.818413443927316], [104.63814732379622, 9.818784886352315], [104.63758980800118, 9.819249212256754], [104.63690313116008, 9.81960056690086], [104.63601964735584, 9.82024749625599], [104.63499689406278, 9.820542346486858], [104.63448576502488, 9.820526435116959], [104.63404874219506, 9.820409238807974], [104.63335146164022, 9.820155672676254], [104.63284170041354, 9.819849415194339], [104.63257012285052, 9.819571889102276], [104.63159563681741, 9.818289077764112], [104.6312667573329, 9.8179600818835], [104.63091129481228, 9.817732798930713], [104.62937769954463, 9.81701932889712], [104.62817377104504, 9.816369040672999], [104.6274712964406, 9.815873659580733], [104.62687564064615, 9.815329172818283], [104.62629471276084, 9.814394999939967], [104.62548682971338, 9.8133991226448], [104.62500340284078, 9.812967162607547], [104.6237723552897, 9.812338850085025], [104.62294126439986, 9.811666524292015], [104.62240739339612, 9.811477933311522], [104.62166700814763, 9.811068635898293], [104.62118036125507, 9.81090722404916], [104.6201440457754, 9.810767345554662], [104.61969627504132, 9.810504836171248], [104.61944681762385, 9.810151207768167], [104.61912883213583, 9.809522742327445], [104.61873915253882, 9.808145401606465], [104.61792186637217, 9.80700101122619], [104.61765426378179, 9.80631916181666], [104.61723232711122, 9.805569320442583], [104.61676787177751, 9.80450981176218], [104.61662783693765, 9.804300631485313], [104.61593619650453, 9.80374157648401], [104.61562584997115, 9.803323385029469], [104.61560382759964, 9.802934287878836], [104.61581434837414, 9.801783724881876], [104.61605820407566, 9.801201092967608], [104.61637088362504, 9.800657583161584], [104.61701849923631, 9.800406730345756], [104.61735222412628, 9.800208904016285], [104.61779901516388, 9.799572782568244], [104.61800068321817, 9.799115842920816], [104.61827449902464, 9.798869601071214], [104.61870553637183, 9.798798325214698], [104.61944993446154, 9.799025780975576], [104.62000884444893, 9.799099149687802], [104.62137571878947, 9.799703807081842], [104.62281052009988, 9.800483558318145], [104.62338800762723, 9.800643939530385], [104.62399948270779, 9.800643609554966], [104.62488695942027, 9.800822969190097], [104.6259227534721, 9.801185390902171], [104.62717011847049, 9.801768156733191], [104.62747719476982, 9.801987300691025], [104.62784303486205, 9.802655480832671], [104.62819904910246, 9.803142804091742], [104.62888175547073, 9.803745541707714], [104.62990358456703, 9.804316922301503], [104.63049821666635, 9.804455277469236], [104.63089132932708, 9.804442352336146], [104.631255612748, 9.804572664262706], [104.63182496811757, 9.805066283383429], [104.6323643589, 9.805811603360217], [104.63278953125186, 9.806126999224386], [104.63320863274811, 9.806295794090811], [104.63384871333318, 9.806457751439833], [104.63433297916379, 9.806492380320686], [104.63482383431537, 9.806166560115276], [104.63504522612341, 9.805830436822392], [104.63525586971993, 9.804816969765755], [104.63561719600085, 9.803865868663884], [104.63583991469848, 9.802903250899696], [104.63607297133325, 9.80255437141285], [104.63682424395476, 9.801942700482252], [104.63719380108866, 9.80145230478315], [104.63755998848363, 9.80057936467101], [104.63769708093157, 9.799599462099865], [104.63777288983034, 9.799388564848492], [104.63821879359213, 9.798837590888848], [104.63876388569508, 9.797653961407049], [104.63911604524841, 9.797328695294835], [104.63955855895382, 9.797083350474098], [104.63983632575003, 9.79701337374508], [104.64074163171334, 9.797019469068166], [104.64205624734635, 9.796924453166534], [104.64241662030746, 9.796970806061193], [104.6430924954931, 9.797189052618826], [104.64403181847047, 9.797401015818368], [104.64438747710803, 9.79741820154488], [104.64519929129077, 9.797307576419412], [104.64555370125991, 9.797321240863274], [104.6471733018983, 9.79778390637663], [104.64795195052297, 9.79793021943841], [104.64847984494354, 9.798190068355158], [104.64908152919853, 9.798768205751195], [104.64976248430996, 9.79926131364536], [104.65079655339179, 9.800493181187239], [104.65157690477939, 9.80174017641316], [104.65194332640739, 9.802772093772388], [104.65253494696303, 9.803696832292218], [104.65298992253034, 9.804841333803937], [104.65354382382756, 9.806800178640659], [104.65360111723761, 9.80716338705682], [104.6535483871555, 9.8082198512862], [104.65392734558804, 9.808894503705794], [104.65500047824396, 9.80994325494453], [104.65526349116023, 9.810828922966266], [104.65561115295682, 9.811307197986173], [104.6557351206854, 9.811600954662657], [104.65587508794057, 9.812702098134901], [104.65611447981635, 9.813852507704622], [104.6562068598384, 9.81507820428178]]], "type": "MultiLineString"}, "properties": {"NAME": "100 m", "LAYER": "Contour Line, Intermediate", "ELEVATION": "100 m", "CLOSED_CON": "YES"}}, {"type": "Feature", "geometry": {"coordinates": [[[104.65547140291851, 9.814238088054173], [104.65549083155352, 9.81458929889711], [104.65540702688611, 9.814886354501713], [104.65522892804297, 9.815145406111478], [104.65496560496186, 9.815322340775072], [104.65386002076569, 9.815539180916014], [104.65318457115549, 9.815596501813413], [104.65287548906336, 9.815563761495852], [104.6521469918262, 9.81525139386723], [104.65070397339773, 9.814775380874607], [104.64923518620347, 9.81364317201428], [104.64800730999565, 9.813330988869746], [104.64726307275285, 9.81303327280425], [104.64588274043116, 9.812644690432895], [104.64449618058094, 9.81191238782697], [104.64192553215965, 9.810902793447891], [104.64034832508662, 9.810534043229683], [104.63979811128036, 9.810586532134844], [104.63959112111945, 9.810687286213197], [104.63927812248585, 9.810997058112312], [104.6391955282585, 9.81131496996881], [104.6392824331716, 9.811795272086245], [104.63968716443459, 9.812643098307822], [104.63987177204625, 9.813170051277893], [104.63987250025352, 9.814402147130053], [104.6394177697307, 9.815406678625976], [104.6387996987902, 9.816113635948646], [104.63872222470246, 9.81630129156867], [104.63863638824363, 9.816920296927831], [104.63843577827686, 9.817145800181612], [104.63800130955862, 9.817462892497163], [104.63768376885916, 9.817986370796566], [104.63738969003735, 9.818301478537183], [104.63650444277837, 9.819093430233057], [104.63613262493153, 9.819329717734572], [104.63549821891688, 9.819578414139917], [104.63490099805952, 9.81968672443919], [104.63437771762891, 9.819720206024698], [104.6338245240316, 9.81959172499857], [104.63355106080738, 9.819465978427429], [104.63319943476147, 9.819173163660185], [104.63201506799533, 9.817433330812316], [104.6311147906447, 9.816458744281325], [104.63087909997068, 9.816338206821115], [104.63061491874828, 9.816313478117733], [104.63009762012, 9.816433210580069], [104.6298071069386, 9.816418041631838], [104.629179164481, 9.816047175879536], [104.62814359798722, 9.81567669744237], [104.62783577246819, 9.815506542471839], [104.62764281879407, 9.815321314146548], [104.62711740802197, 9.814558652478214], [104.62637650849668, 9.813278129754407], [104.62588701628083, 9.812627406703795], [104.62557918224853, 9.812336797426251], [104.62411780483936, 9.81139441182584], [104.6228136893854, 9.810839655438226], [104.62222974884757, 9.810460691199753], [104.62086118075541, 9.809928093495556], [104.62018065700865, 9.809365430136816], [104.61964284210391, 9.80866206754047], [104.61913187249112, 9.807454597670429], [104.61864048206277, 9.80676612221905], [104.6182161834119, 9.805723496170817], [104.61780556279405, 9.804990675331231], [104.61752865642795, 9.804350097343336], [104.61669533189581, 9.80300830384667], [104.61661141655522, 9.802678420420047], [104.61663112544304, 9.80237014318865], [104.61680452723266, 9.80209151190461], [104.61747568497015, 9.80136512603723], [104.61776014745291, 9.801151567261597], [104.6180453749648, 9.80103048440207], [104.61842100906281, 9.80105844181435], [104.61888565544798, 9.801330070330893], [104.61925647890969, 9.801414362235496], [104.620514168381, 9.801147190030127], [104.62076378226455, 9.801163318082562], [104.62133519003105, 9.801367129674206], [104.62205243881738, 9.801432741763438], [104.62341534927621, 9.801980958799358], [104.62375849621519, 9.802060698277067], [104.62463322784987, 9.801905665828645], [104.62540525549592, 9.801883151331122], [104.62571960041967, 9.801928969651168], [104.62604949015018, 9.802147755867484], [104.62655048480893, 9.802600787173116], [104.6270559069118, 9.803287860230325], [104.62846717308584, 9.804329285804465], [104.62922662728867, 9.805112621447725], [104.62975242215434, 9.805346774193499], [104.63050542520955, 9.8055471429291], [104.63061181345165, 9.80562919580838], [104.63131224027433, 9.806445984827354], [104.6314233229201, 9.806749197346802], [104.63147599812176, 9.807168288102421], [104.63166636047816, 9.80749256908206], [104.63214981553114, 9.808006707702482], [104.63236296592784, 9.808076639922836], [104.6329830084115, 9.807798702932775], [104.63382285820288, 9.807796389914147], [104.6346644324769, 9.807509247718116], [104.63511481383705, 9.807477472723502], [104.63548585552668, 9.807386139290305], [104.63585910946392, 9.807191902338692], [104.63600200029795, 9.806743005550006], [104.6359305914902, 9.80539343260533], [104.63631288678651, 9.80469046114911], [104.63665107907701, 9.803652773989183], [104.63709045996808, 9.802890344035122], [104.63774209314937, 9.802319043428229], [104.63818284045902, 9.801622995293933], [104.63841314594688, 9.801108246951493], [104.63863382596888, 9.800016292628923], [104.6390902680766, 9.799372865382146], [104.63930756583449, 9.798893473151518], [104.6396559103168, 9.79850947041426], [104.64040738349924, 9.79813780276785], [104.64217941515518, 9.797901956708092], [104.64419324721443, 9.798170780207323], [104.64496792692027, 9.79820729908347], [104.64731607703474, 9.798796837853498], [104.64796305448638, 9.79911321406931], [104.64843924628656, 9.799579986828242], [104.64921972830139, 9.800105267061985], [104.65010362978268, 9.800973474096219], [104.65078840930165, 9.80177099511434], [104.65135315934738, 9.803230018729023], [104.65180844401686, 9.804080594207994], [104.65206236276556, 9.805002373035013], [104.65248785251136, 9.805890417365575], [104.65268000372798, 9.807493126718615], [104.65290034685651, 9.808478068508357], [104.6531651939086, 9.809264351839733], [104.65333045471235, 9.809570071358541], [104.65423410943146, 9.810597618441234], [104.65459942490986, 9.811176240579487], [104.65516483066513, 9.812279340105338], [104.655294963895, 9.813375842094668], [104.65547140291851, 9.814238088054173]]], "type": "MultiLineString"}, "properties": {"NAME": "150 m", "LAYER": "Contour Line, Intermediate", "ELEVATION": "150 m", "CLOSED_CON": "YES"}}, {"type": "Feature", "geometry": {"coordinates": [[[104.65447687740593, 9.81325125497395], [104.65451227438986, 9.814289397454175], [104.65441837561553, 9.814574559937338], [104.65424249806435, 9.814738491776485], [104.65386516853621, 9.814852283892288], [104.65351908311149, 9.814868888749944], [104.65316696606995, 9.81480749133605], [104.65230589462071, 9.814418375221086], [104.65176259218092, 9.814285432575792], [104.65056126466456, 9.813855561657519], [104.64965051030215, 9.813228862332124], [104.6490248840449, 9.812937295504952], [104.64760666659862, 9.81246575104097], [104.64664393687136, 9.812050527263455], [104.64574971753953, 9.811859492559593], [104.64518556955538, 9.81167266688715], [104.64435296859425, 9.811260736308094], [104.6427882066997, 9.810246732866409], [104.64211003799652, 9.810085269159865], [104.64138605505438, 9.80976923330769], [104.64069648739645, 9.809566186124643], [104.63891007776584, 9.808888821844318], [104.6385866702786, 9.808854136185827], [104.63823434492122, 9.80920417160515], [104.63815127179967, 9.80942212386591], [104.6380941875873, 9.80989543477712], [104.63811453022092, 9.81044309426457], [104.63823700380952, 9.811304104308297], [104.63844552399766, 9.81211866319216], [104.63892090200272, 9.812847721326833], [104.639247237027, 9.813539177197411], [104.63928848697473, 9.813776691245986], [104.63922501260241, 9.814107507498031], [104.63894487555318, 9.814590156321659], [104.6382579005103, 9.815091090304875], [104.6379875076823, 9.815388652204527], [104.63754287060318, 9.81607592333344], [104.63733202352857, 9.81677675171149], [104.6370046522011, 9.817488350014266], [104.63607371205929, 9.818589118040506], [104.63576497517431, 9.818832875670804], [104.63539892742736, 9.818936540801609], [104.6343757106248, 9.818866711460835], [104.63374103421458, 9.818558632406688], [104.633443365853, 9.818258974543404], [104.63258413957776, 9.816720750302833], [104.6316041542036, 9.815704564583436], [104.63126435435876, 9.815550465780605], [104.63034284166785, 9.815477507594428], [104.62948739777895, 9.815277463213715], [104.62849895903906, 9.814978428067679], [104.62794583249635, 9.814703018964682], [104.62766386694918, 9.814413559241716], [104.6271723334459, 9.81336596462785], [104.6263698058821, 9.812088126187723], [104.62608460092277, 9.811739736730162], [104.62548438832334, 9.811324664083925], [104.62396304625484, 9.810603433068193], [104.62318727430812, 9.810139883094804], [104.62251359834454, 9.809860409467076], [104.62170342231774, 9.809200699747999], [104.62114646988452, 9.80847085454593], [104.62026534206744, 9.807818310322633], [104.61997800366048, 9.807451462497827], [104.61972091403538, 9.806972802920654], [104.61868451504422, 9.805399892994165], [104.61858605681853, 9.805065700518902], [104.61843864080345, 9.804026629693254], [104.61804936390412, 9.803328440322959], [104.61804461529414, 9.803083274402463], [104.61813425653098, 9.802931662625168], [104.61839015024464, 9.802816253974088], [104.61893855203358, 9.802835015496983], [104.6197846951731, 9.802769014570016], [104.62116293667442, 9.803108640821673], [104.62264446616396, 9.803186905286601], [104.62327131146203, 9.803341982126273], [104.624132767818, 9.803672942188928], [104.62537777632289, 9.80387225067405], [104.62574802965077, 9.804130557866348], [104.6262462844973, 9.804721842782863], [104.62657881833954, 9.805692466895682], [104.62675250999568, 9.805992737572774], [104.6270948548068, 9.806262148363249], [104.6274393677262, 9.80635614326241], [104.62775265996184, 9.806642078769729], [104.62805130522923, 9.807043161114136], [104.62837771661567, 9.807786868916619], [104.62865539431502, 9.808084324219609], [104.6291794491895, 9.808485931352827], [104.62941344728267, 9.808507516830709], [104.62973365604047, 9.808404126204326], [104.62988209956482, 9.80841082002033], [104.63061887911627, 9.809118268085221], [104.63113295325898, 9.809472937328795], [104.63159242579442, 9.809657033772993], [104.63195078790497, 9.809686375891092], [104.6326144048485, 9.809380360545743], [104.63330597135568, 9.809153833222782], [104.63375484845372, 9.808736187905714], [104.63407343300112, 9.808522962826917], [104.63527283037125, 9.808019877888515], [104.63613888436691, 9.807816704962308], [104.63653709220408, 9.807546384898325], [104.63685448865819, 9.807019847358626], [104.63698779319877, 9.806432766413975], [104.63705763301714, 9.805586895723172], [104.63731294869949, 9.804879223208046], [104.63758855692663, 9.804431381396087], [104.63784993718617, 9.804129314253533], [104.63803919473573, 9.80402799990283], [104.63869706818316, 9.803843051252505], [104.63896798284695, 9.803603460876031], [104.6391872563961, 9.80289786136895], [104.639494312027, 9.802510720252423], [104.63955392859386, 9.802352154691583], [104.63972234370543, 9.800525923257565], [104.63992537206244, 9.800192524170885], [104.64030989398351, 9.799882455821464], [104.64064781509364, 9.799504675891669], [104.64101633406378, 9.799363940142442], [104.64184139670887, 9.799290259070613], [104.64275964903376, 9.79956219397814], [104.6432443516215, 9.799310188122925], [104.64357204634733, 9.799207953365972], [104.6447068050637, 9.79915846350745], [104.64520176785268, 9.799224026410734], [104.64628718403709, 9.799669097011387], [104.64669060473996, 9.799894617271097], [104.64696950171849, 9.800253853951755], [104.64764688733422, 9.801480889150373], [104.64790977443373, 9.801721817500765], [104.64815345214998, 9.80177403618041], [104.64859916818646, 9.80168946058443], [104.64871607291089, 9.801635874606848], [104.64902356380018, 9.801285548942692], [104.64924188594635, 9.801231685141577], [104.64949946544382, 9.801363396643112], [104.64983073858802, 9.801764725583928], [104.65034004666151, 9.802938725420411], [104.65108868310092, 9.804256347553247], [104.65127451757448, 9.805256660688537], [104.65147345571566, 9.805598797935243], [104.6519437529184, 9.806170219553955], [104.652108436433, 9.80651687988803], [104.65206292978492, 9.807812325361542], [104.65192957447724, 9.80850629065108], [104.65203514720773, 9.809120975225218], [104.6524760256571, 9.809767449679542], [104.65338351235837, 9.810586974943467], [104.65386720196695, 9.81124045786396], [104.65421958654001, 9.812283711953635], [104.65458302581055, 9.813013532417914], [104.65447687740593, 9.81325125497395]]], "type": "MultiLineString"}, "properties": {"NAME": "200 m", "LAYER": "Contour Line, Intermediate", "ELEVATION": "200 m", "CLOSED_CON": "YES"}}, {"type": "Feature", "geometry": {"coordinates": [[[104.63773308118351, 9.814227171925829], [104.63722143784692, 9.81511085036811], [104.63666455199754, 9.81571221976842], [104.63630330409677, 9.816311449667987], [104.63617075717988, 9.816727815592676], [104.63607565700714, 9.81751955331916], [104.63580490913995, 9.818032730553522], [104.63553498159338, 9.818231195515088], [104.6352490604962, 9.818308064314976], [104.63489824246716, 9.81828159593399], [104.63461883284604, 9.818174841751548], [104.63401953122427, 9.817705040607748], [104.63349308069468, 9.817141818075797], [104.63329092745572, 9.816794682063236], [104.63317316894631, 9.816368596948543], [104.6330300175454, 9.816090999586848], [104.63179655899032, 9.81470099762126], [104.63160010698091, 9.81456069543136], [104.63121446106759, 9.814412703828879], [104.63087752802429, 9.81442153224681], [104.6302482676585, 9.814601863096593], [104.62977037401814, 9.81465376070662], [104.62939452902872, 9.814598304749905], [104.6289593256439, 9.814382298713209], [104.62747895577459, 9.812647208670121], [104.62711796999271, 9.812087658810531], [104.62672008906287, 9.811272041940036], [104.6263945845394, 9.811060028446107], [104.62535575643251, 9.81061695603852], [104.62459914067271, 9.81009583553355], [104.62362124719493, 9.809562645730137], [104.62330489714961, 9.809362905507365], [104.62249346538906, 9.808686920627588], [104.62221874468855, 9.808389338706004], [104.62133322361498, 9.807181367953651], [104.62055898190647, 9.806540005639931], [104.62035460325704, 9.806282154310752], [104.6198022868844, 9.804957238612724], [104.61975346502005, 9.804741661677477], [104.61979665016155, 9.804517635083847], [104.62005528586326, 9.804299099529695], [104.62035413331022, 9.804251240882996], [104.62233214517025, 9.804378699365527], [104.62321107665895, 9.804380566030796], [104.62465019162222, 9.805006800898802], [104.62482700458656, 9.805239676636019], [104.62496568502766, 9.806032328466648], [104.62516444263842, 9.806573972466976], [104.62548991130349, 9.807052901433794], [104.62571612188582, 9.8071996050025], [104.62639326739337, 9.807402938505552], [104.6267873364192, 9.807611313009222], [104.62713475457186, 9.807900352259585], [104.62783345894891, 9.808633389677462], [104.62921359602574, 9.809690050825195], [104.62986062522116, 9.810046450616555], [104.63052318734016, 9.810516005956405], [104.6309550630521, 9.811054465536737], [104.63130632906642, 9.81126115375339], [104.6317095517349, 9.81129622014582], [104.63194317543795, 9.811243096922453], [104.63223935214961, 9.810842872668172], [104.63282162316747, 9.810376904001119], [104.63314743474662, 9.810215917324195], [104.63401861132724, 9.809967065448419], [104.63432720511052, 9.809826613929653], [104.63450984465888, 9.809669931472252], [104.63487761602373, 9.809176229205267], [104.63559385884916, 9.808622950257792], [104.63582556355269, 9.80852701480394], [104.63620522137924, 9.808475770246948], [104.63650766809356, 9.80847657110234], [104.6367490899984, 9.808554807565478], [104.63718796067255, 9.808862448878427], [104.63702197469182, 9.809723704737733], [104.63702311683349, 9.810022214922922], [104.63747636151908, 9.811310325255429], [104.63758780004989, 9.812037611822307], [104.63800333253768, 9.813262529100987], [104.63798748563292, 9.813496561279912], [104.63785088713449, 9.813765790961993], [104.63773308118351, 9.814227171925829]]], "type": "MultiLineString"}, "properties": {"NAME": "250 m", "LAYER": "Contour Line, Intermediate", "ELEVATION": "250 m", "CLOSED_CON": "YES"}}, {"type": "Feature", "geometry": {"coordinates": [[[104.65363701044171, 9.813107708833035], [104.65330706351557, 9.81346777095157], [104.65282631177192, 9.813679660780947], [104.65220287860545, 9.81365862948005], [104.65142301857284, 9.813454652130599], [104.65078218194766, 9.813370975672209], [104.6500515864664, 9.81289772443161], [104.64728069555458, 9.81158582916807], [104.64560295554666, 9.811184485909271], [104.64378502018515, 9.810237079666027], [104.64329240054695, 9.809527614873245], [104.64291139605908, 9.809252711240932], [104.64271222819903, 9.809182115820938], [104.64140730746641, 9.809039143352415], [104.64112062609117, 9.808918245842445], [104.64065318509495, 9.808555975453379], [104.64007803258143, 9.808250587412235], [104.63991190592309, 9.808205030695593], [104.63924945829466, 9.808215297293186], [104.63893044264388, 9.808097101067016], [104.63843635739771, 9.80778247179754], [104.6380538952304, 9.80746691015989], [104.63788073113803, 9.807153364736202], [104.63790156917385, 9.806700259738829], [104.63803407425117, 9.80625790521718], [104.63838709010307, 9.805733115427193], [104.63991970426432, 9.804676717335454], [104.64111098663379, 9.803445309780859], [104.6412132858866, 9.803186558058938], [104.64116201757464, 9.802300563977413], [104.6412315204346, 9.80182162480103], [104.6413376363161, 9.801559991701883], [104.6416764370493, 9.801241409892757], [104.64237005190367, 9.800931230556554], [104.64306413080584, 9.80101643461776], [104.64384180939919, 9.800828341113872], [104.6444573672269, 9.800974451388976], [104.64507239678395, 9.80085171288805], [104.64543591089722, 9.800946692486228], [104.64557831640823, 9.801076471299888], [104.64588656570847, 9.801626145518117], [104.64618637539593, 9.80199863937314], [104.6465844387434, 9.803039565083276], [104.6468798542622, 9.803332763710483], [104.64700514584851, 9.803362017002815], [104.64734516967893, 9.803305561643995], [104.64805400195222, 9.802965536750976], [104.64875236180357, 9.802915077228647], [104.64904904937217, 9.802952298987668], [104.6493906257998, 9.803142867763503], [104.65022178003558, 9.804092060162867], [104.65038865831735, 9.804397853073814], [104.65056868200014, 9.805139490301997], [104.65125699337091, 9.806047847013035], [104.65141273570568, 9.806510992402119], [104.65145785236744, 9.806827793699798], [104.65140504736368, 9.807388226322843], [104.6510036312838, 9.808044635038847], [104.6509650477056, 9.808367071593004], [104.65100783258434, 9.808536488818831], [104.65148121534953, 9.809364118228432], [104.65193442104629, 9.81031214424385], [104.65211914819758, 9.810560099282949], [104.65275590748301, 9.811159867956212], [104.65329064516719, 9.811966699284921], [104.65359666948889, 9.812647835935278], [104.65363701044171, 9.813107708833035]]], "type": "MultiLineString"}, "properties": {"NAME": "250 m", "LAYER": "Contour Line, Intermediate", "ELEVATION": "250 m", "CLOSED_CON": "YES"}}, {"type": "Feature", "geometry": {"coordinates": [[[104.63520940844104, 9.816206879279795], [104.63524772196835, 9.816599462264401], [104.63512878227922, 9.817179393496042], [104.63493886839389, 9.817338677314464], [104.63478290473488, 9.817368016726734], [104.63454397006821, 9.817278214685475], [104.63421622897637, 9.816942869918122], [104.63403812625585, 9.81666111609662], [104.63369976283055, 9.81543091866581], [104.63350138531708, 9.8150878610369], [104.63259341698902, 9.813701296772527], [104.63225347740193, 9.813346546046017], [104.6319529648138, 9.813129182585698], [104.63161566148491, 9.813085629978229], [104.63100083461323, 9.813371003757156], [104.6298900127003, 9.813543267241082], [104.62950387700182, 9.813469224520297], [104.62914047163204, 9.813294080112241], [104.62866924258829, 9.812833216660605], [104.62808318592172, 9.811801831468085], [104.62732104526827, 9.810879602245466], [104.62669237390872, 9.810336663898791], [104.62605458714248, 9.809963720140853], [104.62538975434343, 9.809140372369006], [104.6245934886772, 9.808654714980642], [104.62351014631463, 9.808098658036414], [104.62292463132299, 9.80787009616939], [104.62264613675796, 9.807658814553864], [104.62246287124674, 9.807426251159871], [104.62189719826473, 9.806429092966866], [104.62149183407668, 9.805928201534211], [104.62144458176985, 9.80579468732871], [104.62149360628094, 9.805710506983832], [104.62175901752244, 9.805691647038078], [104.62260758939819, 9.805956343895836], [104.62351002442078, 9.806105013210013], [104.62385175573846, 9.806381286351659], [104.6244545483973, 9.807138595398651], [104.62534265353149, 9.807712674796166], [104.62611808721539, 9.808050988336793], [104.62656287442476, 9.808328875357834], [104.62728575050565, 9.80911134296675], [104.62837933445596, 9.809843973550775], [104.62871604771719, 9.810131425537433], [104.62918530227806, 9.8107424074163], [104.62975219169878, 9.811339527664524], [104.62991463261959, 9.81198226809202], [104.63037420588667, 9.812299344061751], [104.6311323898119, 9.812559363190175], [104.63162227300718, 9.812823083280538], [104.63197872459936, 9.812867380650683], [104.63276779561234, 9.812366034395517], [104.63336007389506, 9.811849605338406], [104.63342455129242, 9.81194672151629], [104.63346206530603, 9.812323083707708], [104.63330569313949, 9.812592067748122], [104.63326122612364, 9.81283115807653], [104.6338546365948, 9.81430655919006], [104.63476355249018, 9.815319025567998], [104.6351111377939, 9.815843732261662], [104.63520940844104, 9.816206879279795]]], "type": "MultiLineString"}, "properties": {"NAME": "300 m", "LAYER": "Contour Line, Intermediate", "ELEVATION": "300 m", "CLOSED_CON": "YES"}}, {"type": "Feature", "geometry": {"coordinates": [[[104.63376127683644, 9.81126452796585], [104.63369698343855, 9.81161171837336], [104.63367049228452, 9.811224080805037], [104.63370926688592, 9.811198650706501], [104.63376127683644, 9.81126452796585]]], "type": "MultiLineString"}, "properties": {"NAME": "300 m", "LAYER": "Contour Line, Intermediate", "ELEVATION": "300 m", "CLOSED_CON": "YES"}}, {"type": "Feature", "geometry": {"coordinates": [[[104.6366742740808, 9.812141645835698], [104.63625728676782, 9.812426329524454], [104.63609583621724, 9.812465838952447], [104.63591298645049, 9.812382090059403], [104.63533981101727, 9.811937866179214], [104.63498009898613, 9.811220172838514], [104.6349058255873, 9.810923496806044], [104.63506512586939, 9.810319101838223], [104.63539506590396, 9.809830547626834], [104.63575163387532, 9.80959738324873], [104.63606961625038, 9.809679658836084], [104.63625656184315, 9.810007171066308], [104.63639336781821, 9.810781478559296], [104.63682343407241, 9.811605641231344], [104.63683338821863, 9.811946529759107], [104.6366742740808, 9.812141645835698]]], "type": "MultiLineString"}, "properties": {"NAME": "300 m", "LAYER": "Contour Line, Intermediate", "ELEVATION": "300 m", "CLOSED_CON": "YES"}}, {"type": "Feature", "geometry": {"coordinates": [[[104.65131180981506, 9.812180118860926], [104.65106888144277, 9.812189378929915], [104.65005165673837, 9.812007150603563], [104.64936324657717, 9.811592425224756], [104.64800209700539, 9.811314257382517], [104.64727595206143, 9.810920489451638], [104.64556499929726, 9.810286782444972], [104.64501133767102, 9.809877526340793], [104.64465909599865, 9.809491050263512], [104.64419571157576, 9.809119302250213], [104.64384703999369, 9.808548760639274], [104.64347162831913, 9.808238502651902], [104.6431418387002, 9.808112730753125], [104.64298889879183, 9.808108202974699], [104.6423854077732, 9.808298898524157], [104.64186007142577, 9.808280796924745], [104.64156253733654, 9.808148021453984], [104.64070289501149, 9.807513901999668], [104.63994915034405, 9.807216937381595], [104.639660530845, 9.80702808798354], [104.63949929600756, 9.806782394893261], [104.639468416806, 9.806627608360236], [104.63947095558174, 9.806475816096146], [104.63960786146637, 9.806260448564872], [104.64071151022654, 9.805228107642284], [104.64192218695383, 9.804399251858099], [104.6422639677173, 9.804038926230993], [104.64241904191115, 9.803695721600354], [104.64234654646592, 9.803049429714935], [104.642363731258, 9.802743688408853], [104.64248455168148, 9.802413294743845], [104.64261913022358, 9.80224208990701], [104.64292448261396, 9.802127063389403], [104.6432602085606, 9.802104446312795], [104.64401007189434, 9.802209378990993], [104.64434042509349, 9.802345812891199], [104.64471576782711, 9.802726290837398], [104.64533139128825, 9.803694523475738], [104.64584924267783, 9.80435008119262], [104.64652738290161, 9.80487570922204], [104.64708372541891, 9.805167809560972], [104.64747335958867, 9.80528178065659], [104.64778363362095, 9.805226673994756], [104.64831331385004, 9.804919864170175], [104.64870350836924, 9.804521561883712], [104.64896308928324, 9.804368339117554], [104.64905791039791, 9.804370783657886], [104.64935460656366, 9.804556322429706], [104.64965351167746, 9.80486671867801], [104.65042126152822, 9.806147187469234], [104.65040697756022, 9.806743884773395], [104.65003692027778, 9.80848295600053], [104.65009480913986, 9.809643234276132], [104.65021929874612, 9.810027746492885], [104.65056954818269, 9.810587102831928], [104.65155975518236, 9.811649684748643], [104.65164815800425, 9.811828472343073], [104.65165379664418, 9.811957803448678], [104.65158084446958, 9.812075114574947], [104.65131180981506, 9.812180118860926]]], "type": "MultiLineString"}, "properties": {"NAME": "300 m", "LAYER": "Contour Line, Intermediate", "ELEVATION": "300 m", "CLOSED_CON": "YES"}}, {"type": "Feature", "geometry": {"coordinates": [[[104.65250843754903, 9.811987848710345], [104.6524053819256, 9.811972712492821], [104.65248439429962, 9.8119474922094], [104.65250843754903, 9.811987848710345]]], "type": "MultiLineString"}, "properties": {"NAME": "300 m", "LAYER": "Contour Line, Intermediate", "ELEVATION": "300 m", "CLOSED_CON": "YES"}}, {"type": "Feature", "geometry": {"coordinates": [[[104.64866775010137, 9.810600804542945], [104.64801740982112, 9.810517662849646], [104.64743838281038, 9.810283756055263], [104.64595215801425, 9.809094871576352], [104.645209093266, 9.80813941550872], [104.64466122175445, 9.807771093845522], [104.64381698184337, 9.807329849749586], [104.64312904472064, 9.80706910229266], [104.64268702730081, 9.807047747784893], [104.64216076143921, 9.80717896910617], [104.64173829901917, 9.80709065413394], [104.64106395432206, 9.80662261914998], [104.64098482870162, 9.806493543575058], [104.64103647169507, 9.806306059108321], [104.64128451413465, 9.80602630278314], [104.64162140922258, 9.805792727987967], [104.64206537357057, 9.80566197663394], [104.64265729542255, 9.805025219643602], [104.64303682044691, 9.804811959312195], [104.64439602057045, 9.804681681828965], [104.64488106783979, 9.804760520196046], [104.64547057196144, 9.805383683489937], [104.64596554436808, 9.806161743112185], [104.64618949308317, 9.806424290111982], [104.64692345980146, 9.807121963616392], [104.64725405608819, 9.808134679608013], [104.64747942840296, 9.808486427602865], [104.64821977266145, 9.809235179140588], [104.6488404261896, 9.809610229824179], [104.64949979089661, 9.810324371985967], [104.64971289848062, 9.810639643944162], [104.64956875629142, 9.810788148575224], [104.64939532780203, 9.810804619016524], [104.64866775010137, 9.810600804542945]]], "type": "MultiLineString"}, "properties": {"NAME": "350 m", "LAYER": "Contour Line, Intermediate", "ELEVATION": "350 m", "CLOSED_CON": "YES"}}]}