{"type": "FeatureCollection", "name": "Mốc ranh giới", "features": [{"type": "Feature", "geometry": {"coordinates": [104.61563613339405, 9.804054083211907, 0.0], "type": "Point"}, "properties": {"STT": "LS1", "X": 512488.66, "Y": 1084186.97}}, {"type": "Feature", "geometry": {"coordinates": [104.6168987382445, 9.803753215697744, 0.0], "type": "Point"}, "properties": {"STT": "LS2", "X": 512632.36, "Y": 1084512.52}}, {"type": "Feature", "geometry": {"coordinates": [104.61771337550483, 9.804868731438482, 0.0], "type": "Point"}, "properties": {"STT": "LS3", "X": 512716.49, "Y": 1084277.15}}, {"type": "Feature", "geometry": {"coordinates": [104.6183810563258, 9.806343073150192, 0.0], "type": "Point"}, "properties": {"STT": "LS4", "X": 512789.67, "Y": 1084440.23}}, {"type": "Feature", "geometry": {"coordinates": [104.61908368335331, 9.808168126758485, 0.0], "type": "Point"}, "properties": {"STT": "LS5", "X": 512866.68, "Y": 1084642.1}}, {"type": "Feature", "geometry": {"coordinates": [104.6198080906424, 9.809956490274988, 0.0], "type": "Point"}, "properties": {"STT": "LS6", "X": 512946.07, "Y": 1084839.91}}, {"type": "Feature", "geometry": {"coordinates": [104.6207427777381, 9.810793982021888, 0.0], "type": "Point"}, "properties": {"STT": "LS7", "X": 513048.56, "Y": 1084932.57}}, {"type": "Feature", "geometry": {"coordinates": [104.6229623748648, 9.81144716685911, 0.0], "type": "Point"}, "properties": {"STT": "LS8", "X": 513292.0, "Y": 1085004.9}}, {"type": "Feature", "geometry": {"coordinates": [104.62440047871685, 9.812238638817341, 0.0], "type": "Point"}, "properties": {"STT": "LS9", "X": 513449.72, "Y": 1085092.49}}, {"type": "Feature", "geometry": {"coordinates": [104.6257862176671, 9.81339744999441, 0.0], "type": "Point"}, "properties": {"STT": "LS10", "X": 513601.67, "Y": 1085220.71}}, {"type": "Feature", "geometry": {"coordinates": [104.62687401064203, 9.814854064084024, 0.0], "type": "Point"}, "properties": {"STT": "LS11", "X": 513720.93, "Y": 1085381.85}}, {"type": "Feature", "geometry": {"coordinates": [104.6274066284817, 9.815584934655336, 0.0], "type": "Point"}, "properties": {"STT": "LS12", "X": 513779.32, "Y": 1085462.7}}, {"type": "Feature", "geometry": {"coordinates": [104.62805590116686, 9.816226681541618, 0.0], "type": "Point"}, "properties": {"STT": "LS13", "X": 513850.51, "Y": 1085533.7}}, {"type": "Feature", "geometry": {"coordinates": [104.62952603016089, 9.81725825029115, 0.0], "type": "Point"}, "properties": {"STT": "LS14", "X": 514011.73, "Y": 1085647.85}}, {"type": "Feature", "geometry": {"coordinates": [104.63081880853792, 9.818468573809506, 0.0], "type": "Point"}, "properties": {"STT": "LS15", "X": 514153.48, "Y": 1085781.77}}, {"type": "Feature", "geometry": {"coordinates": [104.63238751130243, 9.819388470875063, 0.0], "type": "Point"}, "properties": {"STT": "LS16", "X": 514325.51, "Y": 1085883.57}}, {"type": "Feature", "geometry": {"coordinates": [104.63316723754411, 9.8198519384062, 0.0], "type": "Point"}, "properties": {"STT": "LS17", "X": 514411.02, "Y": 1085934.86}}, {"type": "Feature", "geometry": {"coordinates": [104.63399412179227, 9.820240039422561, 0.0], "type": "Point"}, "properties": {"STT": "LS18", "X": 514501.7, "Y": 1085977.81}}, {"type": "Feature", "geometry": {"coordinates": [104.63581326964339, 9.820176169762227, 0.0], "type": "Point"}, "properties": {"STT": "LS19", "X": 514701.24, "Y": 1085970.83}}, {"type": "Feature", "geometry": {"coordinates": [104.63611259296265, 9.820964468625128, 0.0], "type": "Point"}, "properties": {"STT": "LS20", "X": 514734.04, "Y": 1086058.03}}, {"type": "Feature", "geometry": {"coordinates": [104.63710126250814, 9.80232317546258, 0.0], "type": "Point"}, "properties": {"STT": "LS21", "X": 514843.32, "Y": 1083996.42}}, {"type": "Feature", "geometry": {"coordinates": [104.63877897465899, 9.801611770350972, 0.0], "type": "Point"}, "properties": {"STT": "LS22", "X": 515027.39, "Y": 1083917.83}}, {"type": "Feature", "geometry": {"coordinates": [104.6404557867558, 9.800891855599884, 0.0], "type": "Point"}, "properties": {"STT": "LS23", "X": 515211.36, "Y": 1083838.28}}, {"type": "Feature", "geometry": {"coordinates": [104.64213182026953, 9.80019028808829, 0.0], "type": "Point"}, "properties": {"STT": "LS24", "X": 515395.25, "Y": 1083760.77}}, {"type": "Feature", "geometry": {"coordinates": [104.64381041421365, 9.79947867734399, 0.0], "type": "Point"}, "properties": {"STT": "LS25", "X": 515579.42, "Y": 1083682.14}}, {"type": "Feature", "geometry": {"coordinates": [104.64548719597542, 9.798767689116287, 0.0], "type": "Point"}, "properties": {"STT": "LS26", "X": 515763.38, "Y": 1083603.6}}, {"type": "Feature", "geometry": {"coordinates": [104.6471640459349, 9.79805678282839, 0.0], "type": "Point"}, "properties": {"STT": "LS27", "X": 515947.36, "Y": 1083525.05}}, {"type": "Feature", "geometry": {"coordinates": [104.647738916969, 9.797813137103033, 0.0], "type": "Point"}, "properties": {"STT": "LS28", "X": 516010.43, "Y": 1083498.14}}]}