{"type": "FeatureCollection", "name": "HCMGiaoKhoan", "features": [{"type": "Feature", "geometry": {"coordinates": [[[[106.79858884841516, 10.490871207266752], [106.79715904801128, 10.49214678688253], [106.79504111023934, 10.494828291991086], [106.79657684714746, 10.495713242827753], [106.80023011025814, 10.49758750933432], [106.8026925237773, 10.494541959936624], [106.80083924751833, 10.49311016575276], [106.79858884841516, 10.490871207266752]]]], "type": "MultiPolygon"}, "properties": {"fid": 1.0, "ID": 1, "TT": 1.0, "Tinh": "Hồ Chí Minh", "Xa": "An Thới Đông", "TK": "1", "Khoanh": "1", "Lo": "67", "ldlr": "Rừng trồng khác", "sldlr": "Mít, tre", "Ht2023": "NULL", "namtr": "NULL", "ChuQL": "BQLRPH Cần Giờ", "Nguoinkcu": "Nguyễn Văn Nhất", "Churung": "Nguyễn Quốc Anh", "CMND": "370993214/ Ngày cấp 03/06/2015/ CCS", "DienThoai": "0946444084", "Dtich": 31.86, "DtichBS": 31.86, "NgayDoVe": "PyQt5.QtCore.QDate(2019, 8, 28)", "TranhChap": "Không", "KT": 1.0, "Lapdia": "1", "mdsd": "Phòng hộ môi sinh", "nqh": "0"}}, {"type": "Feature", "geometry": {"coordinates": [[[[106.79820733702857, 10.496549869551412], [106.79657684714746, 10.495713242827753], [106.79504111023934, 10.494828291991086], [106.7931611818711, 10.49750945660238], [106.79271116598208, 10.498394611097778], [106.79572947334543, 10.500425146856099], [106.79820733702857, 10.496549869551412]]]], "type": "MultiPolygon"}, "properties": {"fid": 2.0, "ID": 2, "TT": 2.0, "Tinh": "Hồ Chí Minh", "Xa": "An Thới Đông", "TK": "1", "Khoanh": "1", "Lo": "30", "ldlr": "Rừng trồng khác", "sldlr": "Chuối", "Ht2023": "NULL", "namtr": "NULL", "ChuQL": "BQLRPH Cần Giờ", "Nguoinkcu": "Huỳnh Văn Hường", "Churung": "Huỳnh Văn Hường", "CMND": "370993214/ Ngày cấp 03/06/2015/ CCS", "DienThoai": "0946444084", "Dtich": 19.65, "DtichBS": 19.65, "NgayDoVe": "PyQt5.QtCore.QDate(2019, 12, 9)", "TranhChap": "Không", "KT": 0.0, "Lapdia": "1", "mdsd": "Phòng hộ môi sinh", "nqh": "0"}}, {"type": "Feature", "geometry": {"coordinates": [[[[106.79572947334543, 10.500425146856099], [106.79943604901113, 10.50295022338612], [106.80023011025814, 10.49758750933432], [106.79820733702857, 10.496549869551412], [106.79572947334543, 10.500425146856099]]]], "type": "MultiPolygon"}, "properties": {"fid": 3.0, "ID": 3, "TT": 3.0, "Tinh": "Hồ Chí Minh", "Xa": "An Thới Đông", "TK": "1", "Khoanh": "1", "Lo": "73", "ldlr": "Rừng trồng khác", "sldlr": "Xoài, Mít, Dừa, Sao, Sến", "Ht2023": "NULL", "namtr": "NULL", "ChuQL": "BQLRPH Cần Giờ", "Nguoinkcu": "Trương Thị Vui", "Churung": "Nguyễn Thị Thanh Hiền", "CMND": "370993214/ Ngày cấp 03/06/2015/ CCS", "DienThoai": "0946444084", "Dtich": 19.63, "DtichBS": 19.63, "NgayDoVe": "PyQt5.QtCore.QDate(2019, 9, 4)", "TranhChap": "Không", "KT": 1.0, "Lapdia": "1", "mdsd": "Phòng hộ môi sinh", "nqh": "0"}}, {"type": "Feature", "geometry": {"coordinates": [[[[106.79943604901113, 10.50295022338612], [106.80420171829246, 10.503575204336162], [106.80340756512389, 10.500451214911966], [106.80335459890225, 10.497379457957733], [106.8026925237773, 10.494541959936624], [106.80023011025814, 10.49758750933432], [106.79943604901113, 10.50295022338612]]]], "type": "MultiPolygon"}, "properties": {"fid": 4.0, "ID": 4, "TT": 4.0, "Tinh": "Hồ Chí Minh", "Xa": "An Thới Đông", "TK": "1", "Khoanh": "1", "Lo": "120", "ldlr": "Rừng trồng khác", "sldlr": "Mít, Vú Sữa, Xoài", "Ht2023": "NULL", "namtr": "NULL", "ChuQL": "BQLRPH Cần Giờ", "Nguoinkcu": "Nguyễn Văn Mừng", "Churung": "Nguyễn Văn Mừng", "CMND": "370993214/ Ngày cấp 03/06/2015/ CCS", "DienThoai": "0946444084", "Dtich": 31.8, "DtichBS": 31.8, "NgayDoVe": "PyQt5.QtCore.QDate(2019, 8, 28)", "TranhChap": "Không", "KT": 1.0, "Lapdia": "1", "mdsd": "Phòng hộ môi sinh", "nqh": "0"}}, {"type": "Feature", "geometry": {"coordinates": [[[[106.79271116598208, 10.498394611097778], [106.78953418235525, 10.501544678377499], [106.79271123071445, 10.50555352541839], [106.79943604901113, 10.50295022338612], [106.79572947334543, 10.500425146856099], [106.79271116598208, 10.498394611097778]]]], "type": "MultiPolygon"}, "properties": {"fid": 5.0, "ID": 5, "TT": 5.0, "Tinh": "Hồ Chí Minh", "Xa": "An Thới Đông", "TK": "1", "Khoanh": "1", "Lo": "101", "ldlr": "Rừng trồng khác", "sldlr": "Xoài, Mít, Tre", "Ht2023": "NULL", "namtr": "NULL", "ChuQL": "BQLRPH Cần Giờ", "Nguoinkcu": "Nguyễn Văn Tuấn", "Churung": "Nguyễn Văn Tuấn", "CMND": "370993214/ Ngày cấp 03/06/2015/ CCS", "DienThoai": "0946444084", "Dtich": 43.15, "DtichBS": 43.15, "NgayDoVe": "PyQt5.QtCore.QDate(2019, 8, 28)", "TranhChap": "Không", "KT": 1.0, "Lapdia": "1", "mdsd": "Phòng hộ môi sinh", "nqh": "0"}}, {"type": "Feature", "geometry": {"coordinates": [[[[106.78953418235525, 10.501544678377499], [106.78736336693055, 10.503418936675354], [106.7865689185554, 10.505501497856503], [106.78741634649091, 10.50924995529093], [106.7886342151332, 10.510863983894579], [106.79271123071445, 10.50555352541839], [106.78953418235525, 10.501544678377499]]]], "type": "MultiPolygon"}, "properties": {"fid": 6.0, "ID": 6, "TT": 6.0, "Tinh": "Hồ Chí Minh", "Xa": "An Thới Đông", "TK": "1", "Khoanh": "1", "Lo": "51", "ldlr": "Rừng trồng khác", "sldlr": "Xoài, Mít, Gió bầu", "Ht2023": "NULL", "namtr": "NULL", "ChuQL": "BQLRPH Cần Giờ", "Nguoinkcu": "Nguyễn Văn Hiền", "Churung": "Vừ Minh Thượng", "CMND": "370993214/ Ngày cấp 03/06/2015/ CCS", "DienThoai": "0946444084", "Dtich": 38.61, "DtichBS": 38.61, "NgayDoVe": "PyQt5.QtCore.QDate(2019, 9, 1)", "TranhChap": "Không", "KT": 1.0, "Lapdia": "1", "mdsd": "Phòng hộ môi sinh", "nqh": "0"}}, {"type": "Feature", "geometry": {"coordinates": [[[[106.7886342151332, 10.510863983894579], [106.79895929986675, 10.50977060707121], [106.80420171829246, 10.503575204336162], [106.79943604901113, 10.50295022338612], [106.79271123071445, 10.50555352541839], [106.7886342151332, 10.510863983894579]]]], "type": "MultiPolygon"}, "properties": {"fid": 7.0, "ID": 7, "TT": 7.0, "Tinh": "Hồ Chí Minh", "Xa": "An Thới Đông", "TK": "1", "Khoanh": "1", "Lo": "88", "ldlr": "Rừng trồng khác", "sldlr": "Chuối, Mít", "Ht2023": "NULL", "namtr": "NULL", "ChuQL": "BQLRPH Cần Giờ", "Nguoinkcu": "Đặng Hữu Thích", "Churung": "Đặng Hữu Tuyến", "CMND": "370993214/ Ngày cấp 03/06/2015/ CCS", "DienThoai": "0946444084", "Dtich": 77.68, "DtichBS": 77.68, "NgayDoVe": "PyQt5.QtCore.QDate(2019, 9, 8)", "TranhChap": "Không", "KT": 0.0, "Lapdia": "1", "mdsd": "Phòng hộ môi sinh", "nqh": "0"}}, {"type": "Feature", "geometry": {"coordinates": [[[[106.7886342151332, 10.510863983894579], [106.78934879674327, 10.512243526035503], [106.78919009309199, 10.514638427422039], [106.78776043604117, 10.516929188367417], [106.78585392753546, 10.518543036738246], [106.7856422393229, 10.519220024349135], [106.78760139908084, 10.519063643155112], [106.7901962747335, 10.517189521353401], [106.79257873632963, 10.514065733524419], [106.79411445062044, 10.513284856025555], [106.79565018189096, 10.513597288773532], [106.79602066767232, 10.513805437582471], [106.79895929986675, 10.50977060707121], [106.7886342151332, 10.510863983894579]]]], "type": "MultiPolygon"}, "properties": {"fid": 8.0, "ID": 8, "TT": 8.0, "Tinh": "Hồ Chí Minh", "Xa": "An Thới Đông", "TK": "1", "Khoanh": "1", "Lo": "59", "ldlr": "Rừng trồng khác", "sldlr": "Xoài, Mít, Dừa", "Ht2023": "NULL", "namtr": "NULL", "ChuQL": "BQLRPH Cần Giờ", "Nguoinkcu": "Nguyễn Thị Tuyết (bà nội)", "Churung": "Ngô Thị Tròn", "CMND": "370993214/ Ngày cấp 03/06/2015/ CCS", "DienThoai": "0946444084", "Dtich": 51.48, "DtichBS": 51.48, "NgayDoVe": "PyQt5.QtCore.QDate(2019, 8, 27)", "TranhChap": "Không", "KT": 1.0, "Lapdia": "1", "mdsd": "Phòng hộ môi sinh", "nqh": "0"}}, {"type": "Feature", "geometry": {"coordinates": [[[[106.79602066767232, 10.513805437582471], [106.79665608818199, 10.515835840452675], [106.79670901474584, 10.517553928264805], [106.79644438143428, 10.518126591421158], [106.80173962314336, 10.519844691088329], [106.80348673777358, 10.515835828139688], [106.80491668683486, 10.513076546589227], [106.80565794687276, 10.51182717540735], [106.80581661246083, 10.510265235499], [106.80544619628793, 10.509432243869778], [106.80518124618942, 10.508182783453519], [106.80502244461728, 10.506933240969254], [106.80449290300305, 10.504590349466492], [106.80420171829246, 10.503575204336162], [106.79895929986675, 10.50977060707121], [106.79602066767232, 10.513805437582471]]]], "type": "MultiPolygon"}, "properties": {"fid": 9.0, "ID": 9, "TT": 9.0, "Tinh": "Hồ Chí Minh", "Xa": "An Thới Đông", "TK": "1", "Khoanh": "2", "Lo": "11", "ldlr": "Rừng trồng khác", "sldlr": "Mít, Xoài", "Ht2023": "NULL", "namtr": "1980", "ChuQL": "BQLRPH Cần Giờ", "Nguoinkcu": "Nguyễn Văn Quyền", "Churung": "Nguyễn Văn Diệp", "CMND": "370993214/ Ngày cấp 03/06/2015/ CCS", "DienThoai": "0946444084", "Dtich": 106.85, "DtichBS": 106.85, "NgayDoVe": "PyQt5.QtCore.QDate(2019, 9, 6)", "TranhChap": "Không", "KT": 0.0, "Lapdia": "1", "mdsd": "Phòng hộ môi sinh", "nqh": "0"}}, {"type": "Feature", "geometry": {"coordinates": [[[[106.79644438143428, 10.518126591421158], [106.79572949893071, 10.519818464552452], [106.79546484537425, 10.521796871638013], [106.79652358705677, 10.523358680971574], [106.79869470536775, 10.524556014649468], [106.79991263787471, 10.525909721503487], [106.80012429709193, 10.526690540438267], [106.80843783646266, 10.52773187514301], [106.80912614869567, 10.524347757723037], [106.80589619668395, 10.521692600870384], [106.80594909839523, 10.518256723607315], [106.80494294421227, 10.51674693474616], [106.80565794687276, 10.51182717540735], [106.80491668683486, 10.513076546589227], [106.80348673777358, 10.515835828139688], [106.80173962314336, 10.519844691088329], [106.79644438143428, 10.518126591421158], [106.79644438143428, 10.518126591421158]]]], "type": "MultiPolygon"}, "properties": {"fid": 10.0, "ID": 10, "TT": 10.0, "Tinh": "Hồ Chí Minh", "Xa": "An Thới Đông", "TK": "1", "Khoanh": "1", "Lo": "122", "ldlr": "Rừng trồng khác", "sldlr": "Xòa,Mít", "Ht2023": "NULL", "namtr": "NULL", "ChuQL": "BQLRPH Cần Giờ", "Nguoinkcu": "Nguyễn Thị Diễm", "Churung": "Nguyễn Thị Diễm", "CMND": "370993214/ Ngày cấp 03/06/2015/ CCS", "DienThoai": "0946444084", "Dtich": 115.48, "DtichBS": 115.48, "NgayDoVe": "PyQt5.QtCore.QDate(2019, 8, 30)", "TranhChap": "Không", "KT": 1.0, "Lapdia": "1", "mdsd": "Phòng hộ môi sinh", "nqh": "0"}}, {"type": "Feature", "geometry": {"coordinates": [[[[106.81119111153657, 10.524087456356655], [106.8111911051796, 10.523150358291723], [106.81034396619282, 10.522473647693529], [106.80944365857317, 10.521848912018719], [106.80886116979617, 10.520287188425616], [106.80960271676332, 10.516070116749315], [106.8104498447971, 10.512842313363356], [106.81023818265527, 10.511957179222199], [106.80912609034326, 10.511124139196564], [106.80732569882082, 10.511072105436812], [106.80581661246083, 10.510265235499], [106.80565794687276, 10.51182717540735], [106.80494294421227, 10.51674693474616], [106.80594909839523, 10.518256723607315], [106.80589619668395, 10.521692600870384], [106.80912614869567, 10.524347757723037], [106.81119111153657, 10.524087456356655]]]], "type": "MultiPolygon"}, "properties": {"fid": 11.0, "ID": 11, "TT": 11.0, "Tinh": "Hồ Chí Minh", "Xa": "An Thới Đông", "TK": "1", "Khoanh": "1", "Lo": "83", "ldlr": "Rừng trồng khác", "sldlr": "Mít, Xoài, Tre", "Ht2023": "NULL", "namtr": "NULL", "ChuQL": "BQLRPH Cần Giờ", "Nguoinkcu": "Nguyễn Văn Nhất", "Churung": "Nguyễn Thị Kim Xa", "CMND": "370993214/ Ngày cấp 03/06/2015/ CCS", "DienThoai": "0946444084", "Dtich": 62.71, "DtichBS": 62.71, "NgayDoVe": "PyQt5.QtCore.QDate(2019, 8, 28)", "TranhChap": "Không", "KT": 1.0, "Lapdia": "1", "mdsd": "Phòng hộ môi sinh", "nqh": "0"}}, {"type": "Feature", "geometry": {"coordinates": [[[[106.81142940903352, 10.510629632873862], [106.8122234933627, 10.509744570052952], [106.81317680051998, 10.504694371437846], [106.81418306396664, 10.501726746518807], [106.81508306547585, 10.49995674884377], [106.81566553233564, 10.49829051035233], [106.81656590959031, 10.497301393514707], [106.81630092173906, 10.496155906139949], [106.81593007784537, 10.494906450419784], [106.81222361343555, 10.493917033897244], [106.80735238207515, 10.493500525380615], [106.8045987582417, 10.494021255794653], [106.80375165371998, 10.494593956504836], [106.8041221657073, 10.49667657218056], [106.80459876636716, 10.501570680826287], [106.80560488947295, 10.504434057048615], [106.80682289338495, 10.509588486650957], [106.81142940903352, 10.510629632873862]]]], "type": "MultiPolygon"}, "properties": {"fid": 12.0, "ID": 12, "TT": 12.0, "Tinh": "Hồ Chí Minh", "Xa": "An Thới Đông", "TK": "1", "Khoanh": "1", "Lo": "62", "ldlr": "Rừng trồng khác", "sldlr": "ổi, Xoài, Mít", "Ht2023": "NULL", "namtr": "NULL", "ChuQL": "BQLRPH Cần Giờ", "Nguoinkcu": "Vương Thu Khanh", "Churung": "Vương Thu Khanh", "CMND": "370993214/ Ngày cấp 03/06/2015/ CCS", "DienThoai": "0946444084", "Dtich": 180.47, "DtichBS": 180.47, "NgayDoVe": "PyQt5.QtCore.QDate(2019, 9, 5)", "TranhChap": "Không", "KT": 1.0, "Lapdia": "1", "mdsd": "Phòng hộ môi sinh", "nqh": "0"}}, {"type": "Feature", "geometry": {"coordinates": [[[[106.81593007784537, 10.494906450419784], [106.81630092173906, 10.496155906139949], [106.81656590959031, 10.497301393514707], [106.81566553233564, 10.49829051035233], [106.81508306547585, 10.49995674884377], [106.81418306396664, 10.501726746518807], [106.81931915819636, 10.500685523179122], [106.81926624084257, 10.498550971247834], [106.81836593501708, 10.496259982502766], [106.81593007784537, 10.494906450419784]]]], "type": "MultiPolygon"}, "properties": {"fid": 13.0, "ID": 13, "TT": 13.0, "Tinh": "Hồ Chí Minh", "Xa": "An Thới Đông", "TK": "1", "Khoanh": "1", "Lo": "52", "ldlr": "Rừng trồng khác", "sldlr": "Dừa, Mít, Xoài", "Ht2023": "NULL", "namtr": "NULL", "ChuQL": "BQLRPH Cần Giờ", "Nguoinkcu": "Nguyễn Văn Thế", "Churung": "Phạm Thị Bé Phượng", "CMND": "370993214/ Ngày cấp 03/06/2015/ CCS", "DienThoai": "0946444084", "Dtich": 22.52, "DtichBS": 22.52, "NgayDoVe": "PyQt5.QtCore.QDate(2019, 8, 27)", "TranhChap": "Không", "KT": 1.0, "Lapdia": "1", "mdsd": "Phòng hộ môi sinh", "nqh": "0"}}, {"type": "Feature", "geometry": {"coordinates": [[[[106.81931915819636, 10.500685523179122], [106.81418306396664, 10.501726746518807], [106.81317680051998, 10.504694371437846], [106.8122234933627, 10.509744570052952], [106.81142940903352, 10.510629632873862], [106.81148226505617, 10.511983394659042], [106.81132357930476, 10.514065864688003], [106.81116482205572, 10.514950971285561], [106.81095278656346, 10.516044088354029], [106.81052942724683, 10.517449886526697], [106.81042359603211, 10.518907597797995], [106.81169437755908, 10.518959575204992], [106.81307097323446, 10.516564848383158], [106.8143418480199, 10.515367291970474], [106.81773047630563, 10.514117862265625], [106.82154322170966, 10.511150343970195], [106.8253556758383, 10.508859527761082], [106.82562024251969, 10.508391078290773], [106.82456146387042, 10.507766288197072], [106.82244322930168, 10.507349652374463], [106.82053710638299, 10.505579526588846], [106.81931915819636, 10.500685523179122]]]], "type": "MultiPolygon"}, "properties": {"fid": 14.0, "ID": 14, "TT": 14.0, "Tinh": "Hồ Chí Minh", "Xa": "An Thới Đông", "TK": "1", "Khoanh": "1", "Lo": "119", "ldlr": "Rừng trồng khác", "sldlr": "Tre, Mít", "Ht2023": "NULL", "namtr": "NULL", "ChuQL": "BQLRPH Cần Giờ", "Nguoinkcu": "Nguyễn Thị Hồng Mỹ", "Churung": "Nguyễn Thị Hồng Mỹ", "CMND": "370993214/ Ngày cấp 03/06/2015/ CCS", "DienThoai": "0946444084", "Dtich": 153.4, "DtichBS": 153.4, "NgayDoVe": "PyQt5.QtCore.QDate(2019, 9, 8)", "TranhChap": "Không", "KT": 0.0, "Lapdia": "1", "mdsd": "Phòng hộ môi sinh", "nqh": "0"}}, {"type": "Feature", "geometry": {"coordinates": [[[[106.7856422393229, 10.519220024349135], [106.78227984894004, 10.521172188636712], [106.7811148148223, 10.523670983151383], [106.78217398160824, 10.52856460680092], [106.78164439897733, 10.530542969058033], [106.78688681800506, 10.53554070812063], [106.79112291193184, 10.533302114358182], [106.79361156826937, 10.532469099441203], [106.79647062922848, 10.530490992585719], [106.79615310911002, 10.529605925833529], [106.79525273443392, 10.528824935729453], [106.79482946188377, 10.527731840355317], [106.79488241458643, 10.52731518579733], [106.79535857457549, 10.52715911905216], [106.79625905891132, 10.527107149455603], [106.79731816805948, 10.527471494337984], [106.79805936702932, 10.527835892742212], [106.79874762934033, 10.527835875447694], [106.80012429709193, 10.526690540438267], [106.79991263787471, 10.525909721503487], [106.79869470536775, 10.524556014649468], [106.79652358705677, 10.523358680971574], [106.79546484537425, 10.521796871638013], [106.79572949893071, 10.519818464552452], [106.79644438143428, 10.518126591421158], [106.79670901474584, 10.517553928264805], [106.79665608818199, 10.515835840452675], [106.79602066767232, 10.513805437582471], [106.79565018189096, 10.513597288773532], [106.79411445062044, 10.513284856025555], [106.79257873632963, 10.514065733524419], [106.7901962747335, 10.517189521353401], [106.78760139908084, 10.519063643155112], [106.7856422393229, 10.519220024349135]]]], "type": "MultiPolygon"}, "properties": {"fid": 15.0, "ID": 15, "TT": 15.0, "Tinh": "Hồ Chí Minh", "Xa": "An Thới Đông", "TK": "1", "Khoanh": "1", "Lo": "109", "ldlr": "Rừng trồng khác", "sldlr": "Xoài, Mít, Chuối", "Ht2023": "NULL", "namtr": "NULL", "ChuQL": "BQLRPH Cần Giờ", "Nguoinkcu": "Nguyễn Văn Thẩn", "Churung": "Nguyễn Văn Thẩn", "CMND": "370993214/ Ngày cấp 03/06/2015/ CCS", "DienThoai": "0946444084", "Dtich": 290.26, "DtichBS": 290.26, "NgayDoVe": "PyQt5.QtCore.QDate(2019, 9, 5)", "TranhChap": "Không", "KT": 0.0, "Lapdia": "1", "mdsd": "Phòng hộ môi sinh", "nqh": "0"}}, {"type": "Feature", "geometry": {"coordinates": [[[[106.79647062922848, 10.530490992585719], [106.79713270409712, 10.530985560812796], [106.79623266385192, 10.532391113966826], [106.79490865049273, 10.533015729678795], [106.79422034126442, 10.533900770882818], [106.79395572434736, 10.534890003334196], [106.7939557135725, 10.536243404690705], [106.79448526845447, 10.537180477841696], [106.79575609419734, 10.536816032662655], [106.79628564804771, 10.53645168276403], [106.7969210689488, 10.536191395716058], [106.79766234398697, 10.53613940374043], [106.7986151790822, 10.536972371956354], [106.79962137756925, 10.537753088668069], [106.80046881572204, 10.538430005419515], [106.80115713055949, 10.538950511313876], [106.80168671734498, 10.539054702521053], [106.80237498403689, 10.538430002122645], [106.80279842152108, 10.537649063888919], [106.80332795722023, 10.536555797486969], [106.8039104244446, 10.535931084831105], [106.80438709912123, 10.535306452397128], [106.80496956746794, 10.534629667047195], [106.80539330407731, 10.534369345935003], [106.80629328327272, 10.534056992243094], [106.80809368728497, 10.533484347252427], [106.8089940210388, 10.53322405622956], [106.81074110703419, 10.533171924014905], [106.81111190538867, 10.533328250930342], [106.81232977403843, 10.53213087419465], [106.81238272985668, 10.531401973709496], [106.81127064566925, 10.529579961355125], [106.8110060737801, 10.52765376719551], [106.81084724070877, 10.52630009026194], [106.8108473402287, 10.525206778722229], [106.81119111153657, 10.524087456356655], [106.80912614869567, 10.524347757723037], [106.80843783646266, 10.52773187514301], [106.80012429709193, 10.526690540438267], [106.79874762934033, 10.527835875447694], [106.79805936702932, 10.527835892742212], [106.79731816805948, 10.527471494337984], [106.79625905891132, 10.527107149455603], [106.79535857457549, 10.52715911905216], [106.79488241458643, 10.52731518579733], [106.79482946188377, 10.527731840355317], [106.79525273443392, 10.528824935729453], [106.79615310911002, 10.529605925833529], [106.79647062922848, 10.530490992585719]]]], "type": "MultiPolygon"}, "properties": {"fid": 16.0, "ID": 16, "TT": 16.0, "Tinh": "Hồ Chí Minh", "Xa": "An Thới Đông", "TK": "1", "Khoanh": "1", "Lo": "22", "ldlr": "Rừng trồng khác", "sldlr": "Sao dầu, Mít, Dừa", "Ht2023": "NULL", "namtr": "NULL", "ChuQL": "BQLRPH Cần Giờ", "Nguoinkcu": "Nguyễn Văn Lân", "Churung": "Nguyễn Văn Lân", "CMND": "370993214/ Ngày cấp 03/06/2015/ CCS", "DienThoai": "0946444084", "Dtich": 175.72, "DtichBS": 175.72, "NgayDoVe": "PyQt5.QtCore.QDate(2019, 8, 26)", "TranhChap": "Không", "KT": 1.0, "Lapdia": "1", "mdsd": "Phòng hộ môi sinh", "nqh": "0"}}, {"type": "Feature", "geometry": {"coordinates": [[[[106.78164439897733, 10.530542969058033], [106.77976482276297, 10.533588397631014], [106.77732912436693, 10.53707642288749], [106.78537762029882, 10.53921080497974], [106.78760135456936, 10.538690132037333], [106.78913716934943, 10.53926276050571], [106.78956082221032, 10.539679296114233], [106.79040791228083, 10.540147776336742], [106.79120207945327, 10.54019976727997], [106.7921024656402, 10.540460053271508], [106.7939027943643, 10.539627308047224], [106.79416736676498, 10.538325738467838], [106.79448526845447, 10.537180477841696], [106.7939557135725, 10.536243404690705], [106.79395572434736, 10.534890003334196], [106.79422034126442, 10.533900770882818], [106.79490865049273, 10.533015729678795], [106.79623266385192, 10.532391113966826], [106.79713270409712, 10.530985560812796], [106.79647062922848, 10.530490992585719], [106.79361156826937, 10.532469099441203], [106.79112291193184, 10.533302114358182], [106.78688681800506, 10.53554070812063], [106.78164439897733, 10.530542969058033]]]], "type": "MultiPolygon"}, "properties": {"fid": 17.0, "ID": 17, "TT": 17.0, "Tinh": "Hồ Chí Minh", "Xa": "An Thới Đông", "TK": "1", "Khoanh": "1", "Lo": "37", "ldlr": "Rừng trồng khác", "sldlr": "Xoài, Dừa, Mít", "Ht2023": "NULL", "namtr": "NULL", "ChuQL": "BQLRPH Cần Giờ", "Nguoinkcu": "Vương Hữu Lợi", "Churung": "Nguyễn Thị Thanh Hiền", "CMND": "370993214/ Ngày cấp 03/06/2015/ CCS", "DienThoai": "0946444084", "Dtich": 113.76, "DtichBS": 113.76, "NgayDoVe": "PyQt5.QtCore.QDate(2019, 9, 3)", "TranhChap": "Không", "KT": 1.0, "Lapdia": "1", "mdsd": "Phòng hộ môi sinh", "nqh": "0"}}, {"type": "Feature", "geometry": {"coordinates": [[[[106.7921024656402, 10.540460053271508], [106.79120207945327, 10.54019976727997], [106.79040791228083, 10.540147776336742], [106.78956082221032, 10.539679296114233], [106.78913716934943, 10.53926276050571], [106.78760135456936, 10.538690132037333], [106.78537762029882, 10.53921080497974], [106.77732912436693, 10.53707642288749], [106.77674668685816, 10.53816955467062], [106.77626999743222, 10.539471081014224], [106.7761641389102, 10.540720418017829], [106.7764287622068, 10.541397122661639], [106.77748785510413, 10.542490351700895], [106.77870580007215, 10.54373981689587], [106.77976489916105, 10.544885017740523], [106.78018821263574, 10.54613434910737], [106.78013528201994, 10.546811088865379], [106.7799236586913, 10.547487983785615], [106.77960569937123, 10.548112520534373], [106.77897038101166, 10.548581061748846], [106.77844081706388, 10.549257724665795], [106.77934116486341, 10.549830293517832], [106.78092947855454, 10.549830272292947], [106.78151194011011, 10.55066323332936], [106.78230644568757, 10.551027581218532], [106.78315355805546, 10.550975545447304], [106.78474222022646, 10.550559203579835], [106.78590724372594, 10.550090543630002], [106.78723094137057, 10.550298919520765], [106.7879192232605, 10.550507206418803], [106.78839584012339, 10.551183924769656], [106.7890313362904, 10.551860481692824], [106.78971955824399, 10.551287966173618], [106.79030209596885, 10.550559221615115], [106.79093751336299, 10.54993453510686], [106.79146706369328, 10.55040296977112], [106.7920495438548, 10.550663215106248], [106.79300236791762, 10.549882530491894], [106.79374361899481, 10.550246933838139], [106.79443232436866, 10.550715289690693], [106.7955973464728, 10.550819469024642], [106.7962856303138, 10.550350992296375], [106.79707977200712, 10.550090629298689], [106.79792692121698, 10.550402962081206], [106.7974505681583, 10.548945372059007], [106.79644437344315, 10.547175570144773], [106.79591489084002, 10.546186341119094], [106.79522651709583, 10.545353397532077], [106.79374364045877, 10.54550971599385], [106.79353196478291, 10.54483303595999], [106.79178450685237, 10.5419177403638], [106.7921024656402, 10.540460053271508]]]], "type": "MultiPolygon"}, "properties": {"fid": 18.0, "ID": 18, "TT": 18.0, "Tinh": "Hồ Chí Minh", "Xa": "An Thới Đông", "TK": "1", "Khoanh": "1", "Lo": "55", "ldlr": "Rừng trồng khác", "sldlr": "Mít, Xoài", "Ht2023": "NULL", "namtr": "NULL", "ChuQL": "BQLRPH Cần Giờ", "Nguoinkcu": "Nguyễn Văn Tánh", "Churung": "Nguyễn Văn Tánh", "CMND": "370993214/ Ngày cấp 03/06/2015/ CCS", "DienThoai": "0946444084", "Dtich": 228.85, "DtichBS": 228.85, "NgayDoVe": "PyQt5.QtCore.QDate(2019, 9, 3)", "TranhChap": "Không", "KT": 1.0, "Lapdia": "1", "mdsd": "Phòng hộ môi sinh", "nqh": "0"}}, {"type": "Feature", "geometry": {"coordinates": [[[[106.79866846346533, 10.549934484867945], [106.79956848879362, 10.549674216753075], [106.80121014409382, 10.54811259645725], [106.80364578160193, 10.545770061256137], [106.80438709539747, 10.544676810430024], [106.80534002822898, 10.544104105688104], [106.80756410592359, 10.543687704549015], [106.80835823521255, 10.542282114507726], [106.8094173192962, 10.540616365891895], [106.80999986376953, 10.53905454483774], [106.81095311986287, 10.537596978977666], [106.81127066744602, 10.534525442699474], [106.81026481001953, 10.533848724759606], [106.80798782076154, 10.534265134150411], [106.80523414796372, 10.535358413773418], [106.80353999471198, 10.537388772420023], [106.80285139671196, 10.539366873510412], [106.80211007475559, 10.539783466820197], [106.8012629397376, 10.5395751041943], [106.80068050034622, 10.539106680044668], [106.79999218552825, 10.538586082674575], [106.79930385977025, 10.538169535590704], [106.79797980240878, 10.537596979954241], [106.79697396574149, 10.536868056413125], [106.79639144682957, 10.537076459198573], [106.79559730069136, 10.537596993096477], [106.79533236318116, 10.538273709510795], [106.79501487288347, 10.539106722648434], [106.79464404905013, 10.53978333623988], [106.79416739183168, 10.54009579985763], [106.79374362931333, 10.540408088405544], [106.79279075837958, 10.541084811230979], [106.79257907426316, 10.541761531354584], [106.79294951939814, 10.542490393369324], [106.79374371403694, 10.543687764182442], [106.79512070300473, 10.544833034791225], [106.79655023993075, 10.545926053326749], [106.79739724847323, 10.547956286497824], [106.79866846346533, 10.549934484867945]]]], "type": "MultiPolygon"}, "properties": {"fid": 19.0, "ID": 19, "TT": 19.0, "Tinh": "Hồ Chí Minh", "Xa": "An Thới Đông", "TK": "1", "Khoanh": "2", "Lo": "42", "ldlr": "Rừng trồng khác", "sldlr": "Xoài, Mít, Dừa", "Ht2023": "NULL", "namtr": "NULL", "ChuQL": "BQLRPH Cần Giờ", "Nguoinkcu": "Hoàng Thị Thu Trang", "Churung": "Hoàng Thị Thu Trang", "CMND": "370993214/ Ngày cấp 03/06/2015/ CCS", "DienThoai": "0946444084", "Dtich": 176.76, "DtichBS": 176.76, "NgayDoVe": "PyQt5.QtCore.QDate(2019, 9, 1)", "TranhChap": "Không", "KT": 0.0, "Lapdia": "1", "mdsd": "Phòng hộ môi sinh", "nqh": "0"}}, {"type": "Feature", "geometry": {"coordinates": [[[[106.79866846346533, 10.549934484867945], [106.80014406220222, 10.550240387544585], [106.80281820673734, 10.550084141336137], [106.80488311685366, 10.5529732603113], [106.80991384144836, 10.548704693083367], [106.80756410592359, 10.543687704549015], [106.80534002822898, 10.544104105688104], [106.80438709539747, 10.544676810430024], [106.80364578160193, 10.545770061256137], [106.80121014409382, 10.54811259645725], [106.79956848879362, 10.549674216753075], [106.79866846346533, 10.549934484867945]]]], "type": "MultiPolygon"}, "properties": {"fid": 20.0, "ID": 20, "TT": 20.0, "Tinh": "Hồ Chí Minh", "Xa": "An Thới Đông", "TK": "1", "Khoanh": "1", "Lo": "110", "ldlr": "Rừng trồng khác", "sldlr": "Xoài, Mít, Dừa", "Ht2023": "NULL", "namtr": "NULL", "ChuQL": "BQLRPH Cần Giờ", "Nguoinkcu": "Nguyễn Thị ảng", "Churung": "Nguyễn Thị ảng", "CMND": "370993214/ Ngày cấp 03/06/2015/ CCS", "DienThoai": "0946444084", "Dtich": 59.3, "DtichBS": 59.3, "NgayDoVe": "PyQt5.QtCore.QDate(2019, 8, 30)", "TranhChap": "Không", "KT": 0.0, "Lapdia": "1", "mdsd": "Phòng hộ môi sinh", "nqh": "0"}}, {"type": "Feature", "geometry": {"coordinates": [[[[106.80991384144836, 10.548704693083367], [106.81176709557492, 10.548496430343905], [106.81324954315816, 10.54675249743229], [106.8149970475153, 10.545711437804815], [106.81809478200465, 10.545268787378609], [106.81095311986287, 10.537596978977666], [106.80999986376953, 10.53905454483774], [106.8094173192962, 10.540616365891895], [106.80835823521255, 10.542282114507726], [106.80756410592359, 10.543687704549015], [106.80991384144836, 10.548704693083367]]]], "type": "MultiPolygon"}, "properties": {"fid": 21.0, "ID": 21, "TT": 21.0, "Tinh": "Hồ Chí Minh", "Xa": "An Thới Đông", "TK": "1", "Khoanh": "1", "Lo": "118", "ldlr": "Rừng trồng khác", "sldlr": "Tre", "Ht2023": "NULL", "namtr": "NULL", "ChuQL": "BQLRPH Cần Giờ", "Nguoinkcu": "Nguyễn Thanh Lam", "Churung": "Nguyễn Thanh Lam", "CMND": "370993214/ Ngày cấp 03/06/2015/ CCS", "DienThoai": "0946444084", "Dtich": 69.59, "DtichBS": 69.59, "NgayDoVe": "PyQt5.QtCore.QDate(2019, 8, 30)", "TranhChap": "Không", "KT": 0.0, "Lapdia": "1", "mdsd": "Phòng hộ môi sinh", "nqh": "0"}}, {"type": "Feature", "geometry": {"coordinates": [[[[106.81809478200465, 10.545268787378609], [106.81915359693957, 10.544279842102883], [106.82005395729708, 10.543863305069815], [106.8220925339003, 10.543707242727038], [106.82193351785898, 10.54292626725962], [106.82299261422123, 10.539412508590981], [106.82336332669492, 10.537746522607002], [106.82278086229276, 10.537251925786984], [106.82275429683025, 10.536861484635024], [106.82153644313533, 10.53657524165874], [106.82092761805589, 10.535429934816236], [106.82060977114884, 10.534180585741913], [106.82060969738497, 10.533868160790538], [106.81626781270607, 10.534388874302461], [106.8154469955538, 10.534206586350246], [106.8151557598595, 10.532905069010752], [106.8137527906377, 10.532098164175096], [106.81351445190978, 10.53202013487429], [106.81127066744602, 10.534525442699474], [106.81095311986287, 10.537596978977666], [106.81809478200465, 10.545268787378609]]]], "type": "MultiPolygon"}, "properties": {"fid": 22.0, "ID": 22, "TT": 22.0, "Tinh": "Hồ Chí Minh", "Xa": "An Thới Đông", "TK": "1", "Khoanh": "1", "Lo": "84", "ldlr": "Rừng trồng khác", "sldlr": "Xoài, Mít, Dừa", "Ht2023": "NULL", "namtr": "NULL", "ChuQL": "BQLRPH Cần Giờ", "Nguoinkcu": "Nguyễn Văn Tánh", "Churung": "Nguyễn Tấn Thạnh", "CMND": "370993214/ Ngày cấp 03/06/2015/ CCS", "DienThoai": "0946444084", "Dtich": 118.25, "DtichBS": 118.25, "NgayDoVe": "PyQt5.QtCore.QDate(2019, 8, 27)", "TranhChap": "Không", "KT": 0.0, "Lapdia": "1", "mdsd": "Phòng hộ môi sinh", "nqh": "0"}}, {"type": "Feature", "geometry": {"coordinates": [[[[106.82336332669492, 10.537746522607002], [106.82413125791031, 10.535950548860587], [106.82529626855327, 10.534961407864182], [106.82984992483128, 10.533399790718377], [106.83101488763361, 10.533191511098629], [106.83170316289659, 10.532827106950043], [106.83170310221253, 10.531421469596724], [106.8293732384212, 10.530172035883288], [106.82889691667522, 10.530224011630496], [106.82540206714049, 10.532566786587381], [106.82428998765818, 10.532931078749666], [106.82222502169986, 10.532514729762795], [106.82060969738497, 10.533868160790538], [106.82060977114884, 10.534180585741913], [106.82092761805589, 10.535429934816236], [106.82153644313533, 10.53657524165874], [106.82275429683025, 10.536861484635024], [106.82278086229276, 10.537251925786984], [106.82336332669492, 10.537746522607002]]]], "type": "MultiPolygon"}, "properties": {"fid": 23.0, "ID": 23, "TT": 23.0, "Tinh": "Hồ Chí Minh", "Xa": "An Thới Đông", "TK": "1", "Khoanh": "1", "Lo": "108", "ldlr": "Rừng trồng khác", "sldlr": "Xoài, Mít, Vú sữa", "Ht2023": "NULL", "namtr": "1985", "ChuQL": "BQLRPH Cần Giờ", "Nguoinkcu": "Nguyễn Văn Đức", "Churung": "Đặng Quang Hậu", "CMND": "370993214/ Ngày cấp 03/06/2015/ CCS", "DienThoai": "0946444084", "Dtich": 41.11, "DtichBS": 41.11, "NgayDoVe": "PyQt5.QtCore.QDate(2019, 8, 30)", "TranhChap": "Không", "KT": 0.0, "Lapdia": "1", "mdsd": "Phòng hộ môi sinh", "nqh": "0"}}, {"type": "Feature", "geometry": {"coordinates": [[[[106.8293732384212, 10.530172035883288], [106.82391926634641, 10.527256796784867], [106.82037176294958, 10.525382495734675], [106.81761816004702, 10.523404319021239], [106.81560613891395, 10.519655831096168], [106.81459994642466, 10.516896644852059], [106.8143418480199, 10.515367291970474], [106.81307097323446, 10.516564848383158], [106.81169437755908, 10.518959575204992], [106.81042359603211, 10.518907597797995], [106.81052259714025, 10.520853242222795], [106.81179371342628, 10.522363025841743], [106.81211124415744, 10.52350833856206], [106.81179367899351, 10.524809912828157], [106.81174044632881, 10.526579873513368], [106.81216413614175, 10.527725281759803], [106.81332912074258, 10.529443333370802], [106.81364705722561, 10.53027621554412], [106.81369988417713, 10.53110908355873], [106.8137527906377, 10.532098164175096], [106.8151557598595, 10.532905069010752], [106.8154469955538, 10.534206586350246], [106.81626781270607, 10.534388874302461], [106.82060969738497, 10.533868160790538], [106.82222502169986, 10.532514729762795], [106.82428998765818, 10.532931078749666], [106.82540206714049, 10.532566786587381], [106.82889691667522, 10.530224011630496], [106.8293732384212, 10.530172035883288]]]], "type": "MultiPolygon"}, "properties": {"fid": 24.0, "ID": 24, "TT": 24.0, "Tinh": "Hồ Chí Minh", "Xa": "An Thới Đông", "TK": "1", "Khoanh": "2", "Lo": "65", "ldlr": "Rừng trồng khác", "sldlr": "Mít, Xoài", "Ht2023": "NULL", "namtr": "NULL", "ChuQL": "BQLRPH Cần Giờ", "Nguoinkcu": "Trần Thị Dần", "Churung": "Trần Thị Mai", "CMND": "370993214/ Ngày cấp 03/06/2015/ CCS", "DienThoai": "0946444084", "Dtich": 178.53, "DtichBS": 178.53, "NgayDoVe": "PyQt5.QtCore.QDate(2019, 8, 23)", "TranhChap": "Không", "KT": 0.0, "Lapdia": "1", "mdsd": "Phòng hộ môi sinh", "nqh": "0"}}, {"type": "Feature", "geometry": {"coordinates": [[[[106.8293732384212, 10.530172035883288], [106.83175605685346, 10.528714335525839], [106.83006188274943, 10.52631952805088], [106.82852610723779, 10.524914147155906], [106.82757282342496, 10.52303994859144], [106.82577251568132, 10.521738326500246], [106.82349589248481, 10.520905225828601], [106.81773047630563, 10.514117862265625], [106.8143418480199, 10.515367291970474], [106.81459994642466, 10.516896644852059], [106.81560613891395, 10.519655831096168], [106.81761816004702, 10.523404319021239], [106.82037176294958, 10.525382495734675], [106.82391926634641, 10.527256796784867], [106.8293732384212, 10.530172035883288]]]], "type": "MultiPolygon"}, "properties": {"fid": 25.0, "ID": 25, "TT": 25.0, "Tinh": "Hồ Chí Minh", "Xa": "An Thới Đông", "TK": "1", "Khoanh": "2", "Lo": "3", "ldlr": "Rừng trồng khác", "sldlr": "Mít, Xoài, Dừa, Chuối, Tràm", "Ht2023": "NULL", "namtr": "1975", "ChuQL": "BQLRPH Cần Giờ", "Nguoinkcu": "Trương Văn Hiếu", "Churung": "Trương Văn Hiếu", "CMND": "370993214/ Ngày cấp 03/06/2015/ CCS", "DienThoai": "0946444084", "Dtich": 127.15, "DtichBS": 127.15, "NgayDoVe": "PyQt5.QtCore.QDate(2019, 9, 9)", "TranhChap": "Không", "KT": 0.0, "Lapdia": "1", "mdsd": "Phòng hộ môi sinh", "nqh": "0"}}, {"type": "Feature", "geometry": {"coordinates": [[[[106.83101488763361, 10.533191511098629], [106.83424471985214, 10.534440832685423], [106.83567470233685, 10.534336763964824], [106.8367867687293, 10.534024412882816], [106.83736888422565, 10.533451807610856], [106.83758092034536, 10.532670834149323], [106.83773960660425, 10.531369428244677], [106.83779250414666, 10.53006793356476], [106.83731591984998, 10.52834997387835], [106.83657468993903, 10.526944259343097], [106.8358863525414, 10.526371762627662], [106.83525090040122, 10.526579962094848], [106.83408604270505, 10.527725255256927], [106.83286811223257, 10.528245878037351], [106.83175605685346, 10.528714335525839], [106.8293732384212, 10.530172035883288], [106.83170310221253, 10.531421469596724], [106.83170316289659, 10.532827106950043], [106.83101488763361, 10.533191511098629]]]], "type": "MultiPolygon"}, "properties": {"fid": 26.0, "ID": 26, "TT": 26.0, "Tinh": "Hồ Chí Minh", "Xa": "An Thới Đông", "TK": "1", "Khoanh": "1", "Lo": "14", "ldlr": "Rừng trồng khác", "sldlr": "Gió bầu, Mít, Dừa, Xoài", "Ht2023": "NULL", "namtr": "2010", "ChuQL": "BQLRPH Cần Giờ", "Nguoinkcu": "Nguyễn Hữu Thành", "Churung": "Trần Thanh Hải", "CMND": "370993214/ Ngày cấp 03/06/2015/ CCS", "DienThoai": "0946444084", "Dtich": 50.65, "DtichBS": 50.65, "NgayDoVe": "PyQt5.QtCore.QDate(2019, 5, 9)", "TranhChap": "Không", "KT": 0.0, "Lapdia": "1", "mdsd": "Phòng hộ môi sinh", "nqh": "0"}}, {"type": "Feature", "geometry": {"coordinates": [[[[106.83525090040122, 10.526579962094848], [106.83429774764961, 10.525122172508484], [106.83323891361923, 10.523508347352163], [106.83244437125576, 10.521894609549106], [106.83207397313764, 10.52054086001673], [106.83228557105494, 10.519343505548944], [106.83281515926673, 10.518093989094915], [106.83360929480506, 10.516792582438534], [106.83482720752238, 10.514710111245945], [106.8357805533016, 10.51299195219132], [106.83546268402515, 10.511482176024217], [106.83408598609853, 10.510857423239985], [106.83233859435198, 10.510544996896643], [106.8305382152514, 10.51049300450996], [106.82836742444476, 10.510284692271181], [106.82562024251969, 10.508391078290773], [106.8253556758383, 10.508859527761082], [106.82154322170966, 10.511150343970195], [106.81773047630563, 10.514117862265625], [106.82349589248481, 10.520905225828601], [106.82577251568132, 10.521738326500246], [106.82757282342496, 10.52303994859144], [106.82852610723779, 10.524914147155906], [106.83006188274943, 10.52631952805088], [106.83175605685346, 10.528714335525839], [106.83286811223257, 10.528245878037351], [106.83408604270505, 10.527725255256927], [106.83525090040122, 10.526579962094848]]]], "type": "MultiPolygon"}, "properties": {"fid": 27.0, "ID": 27, "TT": 27.0, "Tinh": "Hồ Chí Minh", "Xa": "An Thới Đông", "TK": "1", "Khoanh": "2", "Lo": "32", "ldlr": "Rừng trồng khác", "sldlr": "Xoài, Dừa, Mít", "Ht2023": "NULL", "namtr": "NULL", "ChuQL": "BQLRPH Cần Giờ", "Nguoinkcu": "Lê Văn Hiền (đất chùa)", "Churung": "Lâm Kim Hoa", "CMND": "370993214/ Ngày cấp 03/06/2015/ CCS", "DienThoai": "0946444084", "Dtich": 226.6, "DtichBS": 226.6, "NgayDoVe": "PyQt5.QtCore.QDate(2019, 8, 22)", "TranhChap": "Không", "KT": 0.0, "Lapdia": "1", "mdsd": "Phòng hộ môi sinh", "nqh": "0"}}]}